{"type":"FeatureCollection","name":"DRC Ebola cases and deaths (HDX mapped subset)","features":[{"type":"Feature","geometry":{"type":"Point","coordinates":[30.25,1.56]},"properties":{"location_name":"Bunia","cases":1413.0,"deaths":442.0,"reference_date":"2026-09-01","source":"HDX / INRB-UMIE","source_url":"https://data.humdata.org/dataset/republique-democratique-du-congo-cas-et-deces-d-ebola","coordinate_note":"Approximate locality coordinate added for mapping; source CSV has no coordinates."}},{"type":"Feature","geometry":{"type":"Point","coordinates":[30.02,1.95]},"properties":{"location_name":"Mongbalu","cases":615.0,"deaths":287.0,"reference_date":"2026-09-01","source":"HDX / INRB-UMIE","source_url":"https://data.humdata.org/dataset/republique-democratique-du-congo-cas-et-deces-d-ebola","coordinate_note":"Approximate locality coordinate added for mapping; source CSV has no coordinates."}},{"type":"Feature","geometry":{"type":"Point","coordinates":[30.31,1.55]},"properties":{"location_name":"Rwampara","cases":964.0,"deaths":341.0,"reference_date":"2026-09-01","source":"HDX / INRB-UMIE","source_url":"https://data.humdata.org/dataset/republique-democratique-du-congo-cas-et-deces-d-ebola","coordinate_note":"Approximate locality coordinate added for mapping; source CSV has no coordinates."}},{"type":"Feature","geometry":{"type":"Point","coordinates":[29.29,0.13]},"properties":{"location_name":"Butembo","cases":180.0,"deaths":134.0,"reference_date":"2026-09-01","source":"HDX / INRB-UMIE","source_url":"https://data.humdata.org/dataset/republique-democratique-du-congo-cas-et-deces-d-ebola","coordinate_note":"Approximate locality coordinate added for mapping; source CSV has no coordinates."}},{"type":"Feature","geometry":{"type":"Point","coordinates":[29.23,-1.68]},"properties":{"location_name":"Goma","cases":1.0,"deaths":0.0,"reference_date":"2026-09-01","source":"HDX / INRB-UMIE","source_url":"https://data.humdata.org/dataset/republique-democratique-du-congo-cas-et-deces-d-ebola","coordinate_note":"Approximate locality coordinate added for mapping; source CSV has no coordinates."}},{"type":"Feature","geometry":{"type":"Point","coordinates":[29.37,0.13]},"properties":{"location_name":"Katwa","cases":408.0,"deaths":270.0,"reference_date":"2026-09-01","source":"HDX / INRB-UMIE","source_url":"https://data.humdata.org/dataset/republique-democratique-du-congo-cas-et-deces-d-ebola","coordinate_note":"Approximate locality coordinate added for mapping; source CSV has no coordinates."}},{"type":"Feature","geometry":{"type":"Point","coordinates":[29.78,1.26]},"properties":{"location_name":"Nyakunde","cases":124.0,"deaths":35.0,"reference_date":"2026-09-01","source":"HDX / INRB-UMIE","source_url":"https://data.humdata.org/dataset/republique-democratique-du-congo-cas-et-deces-d-ebola","coordinate_note":"Approximate locality coordinate added for mapping; source CSV has no coordinates."}},{"type":"Feature","geometry":{"type":"Point","coordinates":[29.47,0.49]},"properties":{"location_name":"Beni","cases":146.0,"deaths":105.0,"reference_date":"2026-09-01","source":"HDX / INRB-UMIE","source_url":"https://data.humdata.org/dataset/republique-democratique-du-congo-cas-et-deces-d-ebola","coordinate_note":"Approximate locality coordinate added for mapping; source CSV has no coordinates."}},{"type":"Feature","geometry":{"type":"Point","coordinates":[30.83,2.86]},"properties":{"location_name":"Aru","cases":8.0,"deaths":6.0,"reference_date":"2026-09-01","source":"HDX / INRB-UMIE","source_url":"https://data.humdata.org/dataset/republique-democratique-du-congo-cas-et-deces-d-ebola","coordinate_note":"Approximate locality coordinate added for mapping; source CSV has no coordinates."}},{"type":"Feature","geometry":{"type":"Point","coordinates":[30.99,2.15]},"properties":{"location_name":"Mahagi","cases":4.0,"deaths":1.0,"reference_date":"2026-09-01","source":"HDX / INRB-UMIE","source_url":"https://data.humdata.org/dataset/republique-democratique-du-congo-cas-et-deces-d-ebola","coordinate_note":"Approximate locality coordinate added for mapping; source CSV has no coordinates."}},{"type":"Feature","geometry":{"type":"Point","coordinates":[29.18,1.56]},"properties":{"location_name":"Mambasa","cases":17.0,"deaths":7.0,"reference_date":"2026-09-01","source":"HDX / INRB-UMIE","source_url":"https://data.humdata.org/dataset/republique-democratique-du-congo-cas-et-deces-d-ebola","coordinate_note":"Approximate locality coordinate added for mapping; source CSV has no coordinates."}},{"type":"Feature","geometry":{"type":"Point","coordinates":[27.62,2.77]},"properties":{"location_name":"Isiro","cases":85.0,"deaths":34.0,"reference_date":"2026-09-01","source":"HDX / INRB-UMIE","source_url":"https://data.humdata.org/dataset/republique-democratique-du-congo-cas-et-deces-d-ebola","coordinate_note":"Approximate locality coordinate added for mapping; source CSV has no coordinates."}},{"type":"Feature","geometry":{"type":"Point","coordinates":[25.19,0.52]},"properties":{"location_name":"Makiso-Kisangani","cases":9.0,"deaths":5.0,"reference_date":"2026-09-01","source":"HDX / INRB-UMIE","source_url":"https://data.humdata.org/dataset/republique-democratique-du-congo-cas-et-deces-d-ebola","coordinate_note":"Approximate locality coordinate added for mapping; source CSV has no coordinates."}}]}