{"type":"FeatureCollection","name":"openAFRICA Ebola case figures (mapped subset)","features":[{"type":"Feature","geometry":{"type":"Point","coordinates":[30.25,1.56]},"properties":{"health_zone":"Bunia","province":"Ituri","confirmed_cases":950.0,"confirmed_deaths":289.0,"reference_date":"8/4/2026","source":"openAFRICA / Minist\u00e8re de la Sant\u00e9 Publique RDC","source_url":"https://open.africa/dataset/ebola-case-figures-2026","coordinate_note":"Approximate locality coordinate added for mapping; source CSV has no coordinates."}},{"type":"Feature","geometry":{"type":"Point","coordinates":[30.02,1.95]},"properties":{"health_zone":"Mongbwalu","province":"Ituri","confirmed_cases":558.0,"confirmed_deaths":268.0,"reference_date":"8/4/2026","source":"openAFRICA / Minist\u00e8re de la Sant\u00e9 Publique RDC","source_url":"https://open.africa/dataset/ebola-case-figures-2026","coordinate_note":"Approximate locality coordinate added for mapping; source CSV has no coordinates."}},{"type":"Feature","geometry":{"type":"Point","coordinates":[30.31,1.55]},"properties":{"health_zone":"Rwampara","province":"Ituri","confirmed_cases":692.0,"confirmed_deaths":282.0,"reference_date":"8/4/2026","source":"openAFRICA / Minist\u00e8re de la Sant\u00e9 Publique RDC","source_url":"https://open.africa/dataset/ebola-case-figures-2026","coordinate_note":"Approximate locality coordinate added for mapping; source CSV has no coordinates."}},{"type":"Feature","geometry":{"type":"Point","coordinates":[29.29,0.13]},"properties":{"health_zone":"Butembo","province":"Nord-Kivu","confirmed_cases":92.0,"confirmed_deaths":69.0,"reference_date":"8/4/2026","source":"openAFRICA / Minist\u00e8re de la Sant\u00e9 Publique RDC","source_url":"https://open.africa/dataset/ebola-case-figures-2026","coordinate_note":"Approximate locality coordinate added for mapping; source CSV has no coordinates."}},{"type":"Feature","geometry":{"type":"Point","coordinates":[29.23,-1.68]},"properties":{"health_zone":"Goma","province":"Nord-Kivu","confirmed_cases":1.0,"confirmed_deaths":0.0,"reference_date":"8/4/2026","source":"openAFRICA / Minist\u00e8re de la Sant\u00e9 Publique RDC","source_url":"https://open.africa/dataset/ebola-case-figures-2026","coordinate_note":"Approximate locality coordinate added for mapping; source CSV has no coordinates."}},{"type":"Feature","geometry":{"type":"Point","coordinates":[29.37,0.13]},"properties":{"health_zone":"Katwa","province":"Nord-Kivu","confirmed_cases":200.0,"confirmed_deaths":129.0,"reference_date":"8/4/2026","source":"openAFRICA / Minist\u00e8re de la Sant\u00e9 Publique RDC","source_url":"https://open.africa/dataset/ebola-case-figures-2026","coordinate_note":"Approximate locality coordinate added for mapping; source CSV has no coordinates."}},{"type":"Feature","geometry":{"type":"Point","coordinates":[29.78,1.26]},"properties":{"health_zone":"Nyankunde","province":"Ituri","confirmed_cases":115.0,"confirmed_deaths":35.0,"reference_date":"8/4/2026","source":"openAFRICA / Minist\u00e8re de la Sant\u00e9 Publique RDC","source_url":"https://open.africa/dataset/ebola-case-figures-2026","coordinate_note":"Approximate locality coordinate added for mapping; source CSV has no coordinates."}},{"type":"Feature","geometry":{"type":"Point","coordinates":[29.47,0.49]},"properties":{"health_zone":"Beni","province":"Nord-Kivu","confirmed_cases":64.0,"confirmed_deaths":49.0,"reference_date":"8/4/2026","source":"openAFRICA / Minist\u00e8re de la Sant\u00e9 Publique RDC","source_url":"https://open.africa/dataset/ebola-case-figures-2026","coordinate_note":"Approximate locality coordinate added for mapping; source CSV has no coordinates."}},{"type":"Feature","geometry":{"type":"Point","coordinates":[30.83,2.86]},"properties":{"health_zone":"Aru","province":"Ituri","confirmed_cases":5.0,"confirmed_deaths":5.0,"reference_date":"8/4/2026","source":"openAFRICA / Minist\u00e8re de la Sant\u00e9 Publique RDC","source_url":"https://open.africa/dataset/ebola-case-figures-2026","coordinate_note":"Approximate locality coordinate added for mapping; source CSV has no coordinates."}},{"type":"Feature","geometry":{"type":"Point","coordinates":[29.18,1.56]},"properties":{"health_zone":"Mambasa","province":"Ituri","confirmed_cases":10.0,"confirmed_deaths":6.0,"reference_date":"8/4/2026","source":"openAFRICA / Minist\u00e8re de la Sant\u00e9 Publique RDC","source_url":"https://open.africa/dataset/ebola-case-figures-2026","coordinate_note":"Approximate locality coordinate added for mapping; source CSV has no coordinates."}},{"type":"Feature","geometry":{"type":"Point","coordinates":[27.62,2.77]},"properties":{"health_zone":"Isiro","province":"Haut-Uele","confirmed_cases":25.0,"confirmed_deaths":14.0,"reference_date":"8/4/2026","source":"openAFRICA / Minist\u00e8re de la Sant\u00e9 Publique RDC","source_url":"https://open.africa/dataset/ebola-case-figures-2026","coordinate_note":"Approximate locality coordinate added for mapping; source CSV has no coordinates."}}]}