{"type": "FeatureCollection", "name": "WHYMAP WOKAM caves", "crs": {"type": "name", "properties": {"name": "urn:ogc:def:crs:OGC:1.3:CRS84"}}, "features": [{"type": "Feature", "properties": {"name": "Las Brujas", "c_depth_m": -9999.0, "NR": "A103", "type": "cave", "c_length_k": -9999.0}, "geometry": {"type": "Point", "coordinates": [-69.81899999999996, -35.80099999999993]}}, {"type": "Feature", "properties": {"name": "Apocalypse Pothole", "c_depth_m": -9999.0, "NR": "D12", "type": "cave", "c_length_k": 12.3}, "geometry": {"type": "Point", "coordinates": [26.83800000000008, -25.952999999999975]}}, {"type": "Feature", "properties": {"name": "Caverna de Santana", "c_depth_m": -9999.0, "NR": "A102", "type": "cave", "c_length_k": -9999.0}, "geometry": {"type": "Point", "coordinates": [-48.701666699999976, -24.530833299999983]}}, {"type": "Feature", "properties": {"name": "Boqueirão", "c_depth_m": -9999.0, "NR": "A99", "type": "cave", "c_length_k": -9999.0}, "geometry": {"type": "Point", "coordinates": [-44.03834595799998, -13.780748332999963]}}, {"type": "Feature", "properties": {"name": "Lapa São Vicente I", "c_depth_m": -9999.0, "NR": "A97", "type": "cave", "c_length_k": -9999.0}, "geometry": {"type": "Point", "coordinates": [-46.349999999999966, -13.585833332999982]}}, {"type": "Feature", "properties": {"name": "Gruta do Padre", "c_depth_m": -9999.0, "NR": "A96", "type": "cave", "c_length_k": -9999.0}, "geometry": {"type": "Point", "coordinates": [-44.06444449999998, -13.218611099999976]}}, {"type": "Feature", "properties": {"name": "Sima Pumacocha", "c_depth_m": -9999.0, "NR": "A92", "type": "cave", "c_length_k": -9999.0}, "geometry": {"type": "Point", "coordinates": [-75.69671003399998, -12.387056735999977]}}, {"type": "Feature", "properties": {"name": "Lapa Doce II", "c_depth_m": -9999.0, "NR": "A95", "type": "cave", "c_length_k": -9999.0}, "geometry": {"type": "Point", "coordinates": [-41.60388889999996, -12.333055599999966]}}, {"type": "Feature", "properties": {"name": "Toca da Boa Vista", "c_depth_m": -9999.0, "NR": "A94", "type": "cave", "c_length_k": -9999.0}, "geometry": {"type": "Point", "coordinates": [-40.86083329999997, -10.159999999999968]}}, {"type": "Feature", "properties": {"name": "Nandembo Cave System", "c_depth_m": 114.0, "NR": "D11", "type": "cave", "c_length_k": 7.5}, "geometry": {"type": "Point", "coordinates": [38.291000000000054, -9.013999999999953]}}, {"type": "Feature", "properties": {"name": "Luweng Jaran", "c_depth_m": 158.0, "NR": "C75", "type": "cave", "c_length_k": 18.2}, "geometry": {"type": "Point", "coordinates": [111.00606000000005, -8.217739999999935]}}, {"type": "Feature", "properties": {"name": "Cueva de Palestina", "c_depth_m": -9999.0, "NR": "A90", "type": "cave", "c_length_k": -9999.0}, "geometry": {"type": "Point", "coordinates": [-77.35189999999994, -5.926899999999932]}}, {"type": "Feature", "properties": {"name": "Clearwater System", "c_depth_m": 483.0, "NR": "C73", "type": "cave", "c_length_k": 215.3}, "geometry": {"type": "Point", "coordinates": [114.89580000000001, 4.092070000000035]}}, {"type": "Feature", "properties": {"name": "Sof Omar", "c_depth_m": 15.0, "NR": "D10", "type": "cave", "c_length_k": 15.1}, "geometry": {"type": "Point", "coordinates": [40.72500000000008, 7.037000000000035]}}, {"type": "Feature", "properties": {"name": "Cueva del Guácharo", "c_depth_m": -9999.0, "NR": "A88", "type": "cave", "c_length_k": 10.2}, "geometry": {"type": "Point", "coordinates": [-63.551669999999945, 10.17417000000006]}}, {"type": "Feature", "properties": {"name": "Saint Paul Cave", "c_depth_m": 100.0, "NR": "C72", "type": "cave", "c_length_k": 32.0}, "geometry": {"type": "Point", "coordinates": [118.92658000000006, 10.192560000000071]}}, {"type": "Feature", "properties": {"name": "Cueva El Samán", "c_depth_m": -9999.0, "NR": "A86", "type": "cave", "c_length_k": 18.2}, "geometry": {"type": "Point", "coordinates": [-72.43099999999998, 10.798000000000059]}}, {"type": "Feature", "properties": {"name": "Chiquibul Cave System", "c_depth_m": 160.0, "NR": "A83", "type": "cave", "c_length_k": 39.0}, "geometry": {"type": "Point", "coordinates": [-89.09999999999997, 16.600000000000023]}}, {"type": "Feature", "properties": {"name": "Sistema Soconusco", "c_depth_m": 513.0, "NR": "A80", "type": "cave", "c_length_k": 23.9}, "geometry": {"type": "Point", "coordinates": [-91.99999999999994, 16.800000000000068]}}, {"type": "Feature", "properties": {"name": "Hang Khe Rhy", "c_depth_m": -9999.0, "NR": "C67", "type": "cave", "c_length_k": 18.9}, "geometry": {"type": "Point", "coordinates": [106.25778000000008, 17.389200000000073]}}, {"type": "Feature", "properties": {"name": "Sistema Huautla", "c_depth_m": 1545.0, "NR": "A79", "type": "cave", "c_length_k": 66.9}, "geometry": {"type": "Point", "coordinates": [-96.79999999999995, 18.100000000000023]}}, {"type": "Feature", "properties": {"name": "Sistema del Faro-Isla de Mona", "c_depth_m": 36.0, "NR": "A84", "type": "cave", "c_length_k": 19.1}, "geometry": {"type": "Point", "coordinates": [-67.79999999999995, 18.100000000000023]}}, {"type": "Feature", "properties": {"name": "Sistema del Rio Encantado", "c_depth_m": 344.0, "NR": "A85", "type": "cave", "c_length_k": 21.8}, "geometry": {"type": "Point", "coordinates": [-66.52999999999997, 18.350000000000023]}}, {"type": "Feature", "properties": {"name": "The Nam Dôn Cave System", "c_depth_m": 200.0, "NR": "C66", "type": "cave", "c_length_k": 42.1}, "geometry": {"type": "Point", "coordinates": [104.54004000000003, 18.494030000000066]}}, {"type": "Feature", "properties": {"name": "Sistema Cuetzalan - Atepolihuit", "c_depth_m": 658.0, "NR": "A78", "type": "cave", "c_length_k": 37.7}, "geometry": {"type": "Point", "coordinates": [-97.49999999999994, 20.000000000000057]}}, {"type": "Feature", "properties": {"name": "Sistema Sac Actun", "c_depth_m": 78.0, "NR": "A70", "type": "cave", "c_length_k": 310.7}, "geometry": {"type": "Point", "coordinates": [-87.39999999999998, 20.300000000000068]}}, {"type": "Feature", "properties": {"name": "Gran Caverna de Palmarito", "c_depth_m": -9999.0, "NR": "A67", "type": "cave", "c_length_k": 54.0}, "geometry": {"type": "Point", "coordinates": [-83.69999999999999, 22.600000000000023]}}, {"type": "Feature", "properties": {"name": "Sistema Purificacion", "c_depth_m": 953.0, "NR": "A71", "type": "cave", "c_length_k": 93.8}, "geometry": {"type": "Point", "coordinates": [-99.39999999999998, 24.000000000000057]}}, {"type": "Feature", "properties": {"name": "Jiangzhou Cave System", "c_depth_m": 283.0, "NR": "C60", "type": "cave", "c_length_k": 46.7}, "geometry": {"type": "Point", "coordinates": [106.97000000000008, 24.31720000000007]}}, {"type": "Feature", "properties": {"name": "Krem Kotsati", "c_depth_m": 215.0, "NR": "C69", "type": "cave", "c_length_k": 21.5}, "geometry": {"type": "Point", "coordinates": [92.38333000000006, 25.166670000000067]}}, {"type": "Feature", "properties": {"name": "Getuhe Dong", "c_depth_m": 418.0, "NR": "C50", "type": "cave", "c_length_k": 11.9}, "geometry": {"type": "Point", "coordinates": [106.29950000000008, 25.69010000000003]}}, {"type": "Feature", "properties": {"name": "Shuanghe Dongqun", "c_depth_m": 534.0, "NR": "C42", "type": "cave", "c_length_k": 151.9}, "geometry": {"type": "Point", "coordinates": [107.29390000000006, 28.236600000000067]}}, {"type": "Feature", "properties": {"name": "San Wang Dong", "c_depth_m": 343.0, "NR": "C39", "type": "cave", "c_length_k": 70.1}, "geometry": {"type": "Point", "coordinates": [107.99510000000004, 29.594400000000064]}}, {"type": "Feature", "properties": {"name": "Honey Creek Cave", "c_depth_m": 38.0, "NR": "A29", "type": "cave", "c_length_k": 33.2}, "geometry": {"type": "Point", "coordinates": [-98.29999999999995, 29.85000000000008]}}, {"type": "Feature", "properties": {"name": "Wakulla-Leon Sinks Cave System", "c_depth_m": 107.0, "NR": "A59", "type": "cave", "c_length_k": 51.5}, "geometry": {"type": "Point", "coordinates": [-84.29999999999995, 30.233333333000076]}}, {"type": "Feature", "properties": {"name": "Teng Long Dong", "c_depth_m": 231.0, "NR": "C37", "type": "cave", "c_length_k": 22.2}, "geometry": {"type": "Point", "coordinates": [108.98170000000005, 30.335200000000043]}}, {"type": "Feature", "properties": {"name": "Wit Tamdoun", "c_depth_m": 30.0, "NR": "D1", "type": "cave", "c_length_k": 19.1}, "geometry": {"type": "Point", "coordinates": [-9.243999999999971, 30.744000000000028]}}, {"type": "Feature", "properties": {"name": "Powell's Cave System", "c_depth_m": 24.0, "NR": "A25", "type": "cave", "c_length_k": 26.1}, "geometry": {"type": "Point", "coordinates": [-99.81666666699994, 30.900000000000034]}}, {"type": "Feature", "properties": {"name": "Lechuguilla Cave", "c_depth_m": 489.0, "NR": "A20", "type": "cave", "c_length_k": 222.6}, "geometry": {"type": "Point", "coordinates": [-104.51666666699998, 32.183333333000064]}}, {"type": "Feature", "properties": {"name": "Fort Stanton Cave", "c_depth_m": 134.0, "NR": "A19", "type": "cave", "c_length_k": 43.3}, "geometry": {"type": "Point", "coordinates": [-105.49999999999994, 33.50000000000006]}}, {"type": "Feature", "properties": {"name": "Rhar Bou Ma’za", "c_depth_m": 35.0, "NR": "D2", "type": "cave", "c_length_k": 18.4}, "geometry": {"type": "Point", "coordinates": [-1.2539999999999623, 34.70900000000006]}}, {"type": "Feature", "properties": {"name": "Ellisons Cave", "c_depth_m": 324.0, "NR": "A43", "type": "cave", "c_length_k": 19.5}, "geometry": {"type": "Point", "coordinates": [-85.51666666699998, 34.900000000000034]}}, {"type": "Feature", "properties": {"name": "Ali Saadr Cave", "c_depth_m": -9999.0, "NR": "C18", "type": "cave", "c_length_k": 11.0}, "geometry": {"type": "Point", "coordinates": [48.30000000000007, 35.30000000000007]}}, {"type": "Feature", "properties": {"name": "Kuna Kamtiar", "c_depth_m": -9999.0, "NR": "C16", "type": "cave", "c_length_k": 5.1}, "geometry": {"type": "Point", "coordinates": [45.02408333300008, 35.358472222000046]}}, {"type": "Feature", "properties": {"name": "Fitton Cave", "c_depth_m": 95.0, "NR": "A33", "type": "cave", "c_length_k": 28.2}, "geometry": {"type": "Point", "coordinates": [-93.25000000099999, 35.75000000000006]}}, {"type": "Feature", "properties": {"name": "Blue Spring Cave", "c_depth_m": 94.0, "NR": "A41", "type": "cave", "c_length_k": 61.5}, "geometry": {"type": "Point", "coordinates": [-85.38333333299994, 35.96666666700003]}}, {"type": "Feature", "properties": {"name": "Annou Ifflis", "c_depth_m": 1170.0, "NR": "D3", "type": "cave", "c_length_k": 2.0}, "geometry": {"type": "Point", "coordinates": [4.143000000000029, 36.20300000000003]}}, {"type": "Feature", "properties": {"name": "Omega System", "c_depth_m": 385.0, "NR": "A46", "type": "cave", "c_length_k": 47.1}, "geometry": {"type": "Point", "coordinates": [-82.66666666699996, 36.86666666700006]}}, {"type": "Feature", "properties": {"name": "Mammoth Cave System", "c_depth_m": 124.0, "NR": "A38", "type": "cave", "c_length_k": 643.7}, "geometry": {"type": "Point", "coordinates": [-86.09999999999997, 37.183333333000064]}}, {"type": "Feature", "properties": {"name": "Crevice Cave", "c_depth_m": -9999.0, "NR": "A36", "type": "cave", "c_length_k": 47.6}, "geometry": {"type": "Point", "coordinates": [-89.74999999999994, 37.75000000000006]}}, {"type": "Feature", "properties": {"name": "Binkley's Cave System", "c_depth_m": 43.0, "NR": "A37", "type": "cave", "c_length_k": 63.3}, "geometry": {"type": "Point", "coordinates": [-86.13333333299994, 38.150000000000034]}}, {"type": "Feature", "properties": {"name": "Friars Hole Cave System", "c_depth_m": 191.0, "NR": "A49", "type": "cave", "c_length_k": 73.3}, "geometry": {"type": "Point", "coordinates": [-80.33333333299998, 38.41666666700007]}}, {"type": "Feature", "properties": {"name": "Hellhole System", "c_depth_m": 212.0, "NR": "A51", "type": "cave", "c_length_k": 67.1}, "geometry": {"type": "Point", "coordinates": [-79.38333333199995, 38.76666666700004]}}, {"type": "Feature", "properties": {"name": "Groaning Cave", "c_depth_m": 45.0, "NR": "A15", "type": "cave", "c_length_k": 18.0}, "geometry": {"type": "Point", "coordinates": [-107.18333333299995, 39.683333333000064]}}, {"type": "Feature", "properties": {"name": "Gökgöl", "c_depth_m": 11.0, "NR": "C1", "type": "cave", "c_length_k": 3.4}, "geometry": {"type": "Point", "coordinates": [31.833099511000057, 41.442295503000025]}}, {"type": "Feature", "properties": {"name": "Duhlata", "c_depth_m": 73.0, "NR": "B83", "type": "cave", "c_length_k": 18.2}, "geometry": {"type": "Point", "coordinates": [23.198972000000026, 42.49488900000006]}}, {"type": "Feature", "properties": {"name": "Željezna jama", "c_depth_m": 1027.0, "NR": "B52", "type": "cave", "c_length_k": 2.8}, "geometry": {"type": "Point", "coordinates": [19.652585803000022, 42.62721359200003]}}, {"type": "Feature", "properties": {"name": "Coume Ouarnède Cave System", "c_depth_m": 975.0, "NR": "B17", "type": "cave", "c_length_k": 105.8}, "geometry": {"type": "Point", "coordinates": [0.8663890000000265, 42.972500000000025]}}, {"type": "Feature", "properties": {"name": "Pierre Saint-Martin Cave System", "c_depth_m": 1408.0, "NR": "B15", "type": "cave", "c_length_k": 80.2}, "geometry": {"type": "Point", "coordinates": [-0.7447219999999675, 42.97777800000006]}}, {"type": "Feature", "properties": {"name": "Krubera Cave", "c_depth_m": 2197.0, "NR": "C12", "type": "cave", "c_length_k": 16.1}, "geometry": {"type": "Point", "coordinates": [40.36222200000003, 43.409722000000045]}}, {"type": "Feature", "properties": {"name": "Wind Cave", "c_depth_m": 194.0, "NR": "A13", "type": "cave", "c_length_k": 228.2}, "geometry": {"type": "Point", "coordinates": [-103.46666666699997, 43.55000000000007]}}, {"type": "Feature", "properties": {"name": "Mystery Cave System", "c_depth_m": 31.0, "NR": "A16", "type": "cave", "c_length_k": 20.6}, "geometry": {"type": "Point", "coordinates": [-92.29999999999995, 43.61666666700006]}}, {"type": "Feature", "properties": {"name": "Zlotska pećina", "c_depth_m": 60.0, "NR": "B80", "type": "cave", "c_length_k": 9.8}, "geometry": {"type": "Point", "coordinates": [21.96315000000004, 44.02967000000007]}}, {"type": "Feature", "properties": {"name": "Kita Gacesina - Drazenova puhaljka", "c_depth_m": 737.0, "NR": "B42", "type": "cave", "c_length_k": 26.4}, "geometry": {"type": "Point", "coordinates": [15.857123181000077, 44.269152371000075]}}, {"type": "Feature", "properties": {"name": "Saint-Marcel d'Ardéche Cave", "c_depth_m": 233.0, "NR": "B20", "type": "cave", "c_length_k": 51.2}, "geometry": {"type": "Point", "coordinates": [4.541012000000023, 44.332062000000064]}}, {"type": "Feature", "properties": {"name": "Sustav Lukina jama - Trojama", "c_depth_m": 1431.0, "NR": "B41", "type": "cave", "c_length_k": 3.7}, "geometry": {"type": "Point", "coordinates": [15.031295757000066, 44.76710275500005]}}, {"type": "Feature", "properties": {"name": "Pestera Topolnita", "c_depth_m": 127.0, "NR": "B78", "type": "cave", "c_length_k": 20.5}, "geometry": {"type": "Point", "coordinates": [22.56376388800004, 44.81880555600003]}}, {"type": "Feature", "properties": {"name": "Clot d'Aspres Cave System", "c_depth_m": 1066.0, "NR": "B22", "type": "cave", "c_length_k": 40.0}, "geometry": {"type": "Point", "coordinates": [5.574550000000045, 45.02208500000006]}}, {"type": "Feature", "properties": {"name": "Postojnska jama", "c_depth_m": 115.0, "NR": "B39", "type": "cave", "c_length_k": 20.6}, "geometry": {"type": "Point", "coordinates": [14.208342729000037, 45.78300550200004]}}, {"type": "Feature", "properties": {"name": "Jean Bernard Cave System", "c_depth_m": 1602.0, "NR": "B25", "type": "cave", "c_length_k": 20.5}, "geometry": {"type": "Point", "coordinates": [6.780556000000047, 46.10166700000008]}}, {"type": "Feature", "properties": {"name": "Čehi 2", "c_depth_m": 1502.0, "NR": "B35", "type": "cave", "c_length_k": 5.3}, "geometry": {"type": "Point", "coordinates": [13.514721644000076, 46.36730424400008]}}, {"type": "Feature", "properties": {"name": "Sistemul Vărăşoaia", "c_depth_m": 653.0, "NR": "B76", "type": "cave", "c_length_k": 19.3}, "geometry": {"type": "Point", "coordinates": [22.70033527800007, 46.62052777800005]}}, {"type": "Feature", "properties": {"name": "Hölloch", "c_depth_m": 939.0, "NR": "B28", "type": "cave", "c_length_k": 200.4}, "geometry": {"type": "Point", "coordinates": [8.788389000000052, 46.976639000000034]}}, {"type": "Feature", "properties": {"name": "Molnár János Cave", "c_depth_m": 130.0, "NR": "B67", "type": "cave", "c_length_k": 6.0}, "geometry": {"type": "Point", "coordinates": [19.02085500000004, 47.31045700000004]}}, {"type": "Feature", "properties": {"name": "Riesending-Schachthöhle", "c_depth_m": 1148.0, "NR": "B30", "type": "cave", "c_length_k": 19.1}, "geometry": {"type": "Point", "coordinates": [12.98323300100003, 47.69828300000006]}}, {"type": "Feature", "properties": {"name": "Schönberg-Höhlensystem", "c_depth_m": 1061.0, "NR": "B31", "type": "cave", "c_length_k": 140.1}, "geometry": {"type": "Point", "coordinates": [13.772336000000053, 47.70152500000006]}}, {"type": "Feature", "properties": {"name": "Baradla - Domica Cave System", "c_depth_m": 112.0, "NR": "B72", "type": "cave", "c_length_k": 26.0}, "geometry": {"type": "Point", "coordinates": [20.294327000000067, 48.281818000000044]}}, {"type": "Feature", "properties": {"name": "Wielka Śnieżna Cave", "c_depth_m": 824.0, "NR": "B70", "type": "cave", "c_length_k": 23.7}, "geometry": {"type": "Point", "coordinates": [19.922777778000068, 49.23972222200007]}}, {"type": "Feature", "properties": {"name": "Punkevní jeskyně Cave", "c_depth_m": 138.0, "NR": "B64", "type": "cave", "c_length_k": 3.9}, "geometry": {"type": "Point", "coordinates": [16.72980000000007, 49.37200000000007]}}, {"type": "Feature", "properties": {"name": "Yorkshire Pot", "c_depth_m": 389.0, "NR": "A9", "type": "cave", "c_length_k": 13.8}, "geometry": {"type": "Point", "coordinates": [-114.60000000099996, 49.55000000000007]}}, {"type": "Feature", "properties": {"name": "Weymer Cave System", "c_depth_m": 370.0, "NR": "A2", "type": "cave", "c_length_k": 12.7}, "geometry": {"type": "Point", "coordinates": [-126.61000000099995, 49.89000000000004]}}, {"type": "Feature", "properties": {"name": "Grotte de Han-sur-Lesse", "c_depth_m": 50.0, "NR": "B7", "type": "cave", "c_length_k": 5.7}, "geometry": {"type": "Point", "coordinates": [5.196271999000032, 50.12128900000005]}}, {"type": "Feature", "properties": {"name": "Ogof Draenen", "c_depth_m": 151.0, "NR": "B4", "type": "cave", "c_length_k": 70.0}, "geometry": {"type": "Point", "coordinates": [-3.0932999999999424, 51.80030000000005]}}, {"type": "Feature", "properties": {"name": "Castleguard Cave", "c_depth_m": 384.0, "NR": "A5", "type": "cave", "c_length_k": 21.0}, "geometry": {"type": "Point", "coordinates": [-117.20000000099998, 52.10000000000008]}}, {"type": "Feature", "properties": {"name": "Arctomys Cave", "c_depth_m": 536.0, "NR": "A3", "type": "cave", "c_length_k": 3.5}, "geometry": {"type": "Point", "coordinates": [-118.89999999999998, 53.07000000000005]}}, {"type": "Feature", "properties": {"name": "Poulnagollum - Poulelva", "c_depth_m": 140.0, "NR": "B2", "type": "cave", "c_length_k": 16.0}, "geometry": {"type": "Point", "coordinates": [-9.251359999999977, 53.07716000000005]}}, {"type": "Feature", "properties": {"name": "Three Counties System", "c_depth_m": 211.0, "NR": "B3", "type": "cave", "c_length_k": 102.0}, "geometry": {"type": "Point", "coordinates": [-2.5064519999999675, 54.206990000000076]}}, {"type": "Feature", "properties": {"name": "Tjoarvekrajgge", "c_depth_m": 502.0, "NR": "B94", "type": "cave", "c_length_k": 25.1}, "geometry": {"type": "Point", "coordinates": [15.684650000000033, 67.60786388900004]}}, {"type": "Feature", "properties": {"name": "Mortillano C.S.", "c_depth_m": 950.0, "NR": "B10", "type": "cave", "c_length_k": 127.0}, "geometry": {"type": "Point", "coordinates": [-3.517221999999947, 43.188056000000074]}}, {"type": "Feature", "properties": {"name": "Pas de Vallgornera Cave", "c_depth_m": 21.0, "NR": "B14", "type": "cave", "c_length_k": 70.59}, "geometry": {"type": "Point", "coordinates": [2.8736111110000593, 39.36666666700006]}}, {"type": "Feature", "properties": {"name": "Burke's Back Yard", "c_depth_m": 23.0, "NR": "E7", "type": "cave", "c_length_k": 120.4}, "geometry": {"type": "Point", "coordinates": [131.2666240000001, -15.633836999999971]}}, {"type": "Feature", "properties": {"name": "Old Homestead Cave", "c_depth_m": 0.0, "NR": "E6", "type": "cave", "c_length_k": 28.0}, "geometry": {"type": "Point", "coordinates": [127.95950000000005, -31.152799999999957]}}]}