{"type": "FeatureCollection", "name": "WHYMAP WOKAM non_exposed_karst", "crs": {"type": "name", "properties": {"name": "urn:ogc:def:crs:OGC:1.3:CRS84"}}, "features": [{"type": "Feature", "properties": {"Angle": 170}, "geometry": {"type": "Point", "coordinates": [0.8629013080000618, 52.02425297600007]}}, {"type": "Feature", "properties": {"Angle": 155}, "geometry": {"type": "Point", "coordinates": [0.31326222700005246, 51.93414321100005]}}, {"type": "Feature", "properties": {"Angle": 157}, "geometry": {"type": "Point", "coordinates": [-0.047190150999938396, 51.78068312400006]}}, {"type": "Feature", "properties": {"Angle": 131}, "geometry": {"type": "Point", "coordinates": [-2.068414925999946, 51.517356824000046]}}, {"type": "Feature", "properties": {"Angle": 169}, "geometry": {"type": "Point", "coordinates": [-1.2428623219999508, 51.837762851000036]}}, {"type": "Feature", "properties": {"Angle": 152}, "geometry": {"type": "Point", "coordinates": [-0.6610996799999498, 52.123548620000065]}}, {"type": "Feature", "properties": {"Angle": 143}, "geometry": {"type": "Point", "coordinates": [-0.3325454359999753, 52.534571956000036]}}, {"type": "Feature", "properties": {"Angle": 90}, "geometry": {"type": "Point", "coordinates": [-0.4843363989999716, 53.38471020800006]}}, {"type": "Feature", "properties": {"Angle": 74}, "geometry": {"type": "Point", "coordinates": [-1.2325018739999791, 53.80785797300007]}}, {"type": "Feature", "properties": {"Angle": 70}, "geometry": {"type": "Point", "coordinates": [-1.55399153999997, 54.26601857700007]}}, {"type": "Feature", "properties": {"Angle": 156}, "geometry": {"type": "Point", "coordinates": [-1.3254787479999663, 54.62361060000006]}}, {"type": "Feature", "properties": {"Angle": 169}, "geometry": {"type": "Point", "coordinates": [-3.528005888999928, 51.969452518000026]}}, {"type": "Feature", "properties": {"Angle": 161}, "geometry": {"type": "Point", "coordinates": [-4.018707933999963, 51.84267211900004]}}, {"type": "Feature", "properties": {"Angle": 100}, "geometry": {"type": "Point", "coordinates": [0.2830099090000431, 49.22264156400007]}}, {"type": "Feature", "properties": {"Angle": 65}, "geometry": {"type": "Point", "coordinates": [0.3059388160000367, 48.84244953700005]}}, {"type": "Feature", "properties": {"Angle": 90}, "geometry": {"type": "Point", "coordinates": [0.9870871720000309, 48.38797715700008]}}, {"type": "Feature", "properties": {"Angle": 45}, "geometry": {"type": "Point", "coordinates": [1.0184682520000479, 47.11432928600004]}}, {"type": "Feature", "properties": {"Angle": 340}, "geometry": {"type": "Point", "coordinates": [2.706600639000044, 47.323327275000054]}}, {"type": "Feature", "properties": {"Angle": 335}, "geometry": {"type": "Point", "coordinates": [3.209750839000037, 47.59288623000003]}}, {"type": "Feature", "properties": {"Angle": 335}, "geometry": {"type": "Point", "coordinates": [3.923834179000039, 47.94269773100007]}}, {"type": "Feature", "properties": {"Angle": 345}, "geometry": {"type": "Point", "coordinates": [4.666852071000051, 48.31758290600004]}}, {"type": "Feature", "properties": {"Angle": 285}, "geometry": {"type": "Point", "coordinates": [5.050110633000031, 48.787000369000054]}}, {"type": "Feature", "properties": {"Angle": 225}, "geometry": {"type": "Point", "coordinates": [3.7369301370000585, 49.50003955200003]}}, {"type": "Feature", "properties": {"Angle": 145}, "geometry": {"type": "Point", "coordinates": [3.0165130020000674, 49.53870014000006]}}, {"type": "Feature", "properties": {"Angle": 10}, "geometry": {"type": "Point", "coordinates": [3.5672303280000506, 50.53691736400003]}}, {"type": "Feature", "properties": {"Angle": 350}, "geometry": {"type": "Point", "coordinates": [4.464833395000028, 50.51151453500006]}}, {"type": "Feature", "properties": {"Angle": 353}, "geometry": {"type": "Point", "coordinates": [5.365880634000064, 50.79682513100005]}}, {"type": "Feature", "properties": {"Angle": 130}, "geometry": {"type": "Point", "coordinates": [5.487269669000057, 50.23512022300008]}}, {"type": "Feature", "properties": {"Angle": 175}, "geometry": {"type": "Point", "coordinates": [4.898236802000042, 50.04076093200007]}}, {"type": "Feature", "properties": {"Angle": 358}, "geometry": {"type": "Point", "coordinates": [7.199440339000034, 52.194733463000034]}}, {"type": "Feature", "properties": {"Angle": 0}, "geometry": {"type": "Point", "coordinates": [8.520056078000039, 52.30101460700007]}}, {"type": "Feature", "properties": {"Angle": 10}, "geometry": {"type": "Point", "coordinates": [9.580486691000033, 52.38583204400004]}}, {"type": "Feature", "properties": {"Angle": 3}, "geometry": {"type": "Point", "coordinates": [10.781751067000073, 52.415787891000036]}}, {"type": "Feature", "properties": {"Angle": 40}, "geometry": {"type": "Point", "coordinates": [11.241319761000057, 52.17326303700003]}}, {"type": "Feature", "properties": {"Angle": 284}, "geometry": {"type": "Point", "coordinates": [6.957490446000065, 48.73649342700003]}}, {"type": "Feature", "properties": {"Angle": 159}, "geometry": {"type": "Point", "coordinates": [7.138721239000063, 47.037083374000076]}}, {"type": "Feature", "properties": {"Angle": 163}, "geometry": {"type": "Point", "coordinates": [7.5944830210000305, 47.21637141200006]}}, {"type": "Feature", "properties": {"Angle": 153}, "geometry": {"type": "Point", "coordinates": [9.163175140000021, 48.03029162900003]}}, {"type": "Feature", "properties": {"Angle": 153}, "geometry": {"type": "Point", "coordinates": [9.665336987000046, 48.275440855000056]}}, {"type": "Feature", "properties": {"Angle": 156}, "geometry": {"type": "Point", "coordinates": [10.22168391200006, 48.506023965000054]}}, {"type": "Feature", "properties": {"Angle": 170}, "geometry": {"type": "Point", "coordinates": [10.90770567100003, 48.708902488000035]}}, {"type": "Feature", "properties": {"Angle": 166}, "geometry": {"type": "Point", "coordinates": [11.912724032000028, 48.82162734700006]}}, {"type": "Feature", "properties": {"Angle": 194}, "geometry": {"type": "Point", "coordinates": [-0.21152433799994697, 45.19506548500004]}}, {"type": "Feature", "properties": {"Angle": 185}, "geometry": {"type": "Point", "coordinates": [0.2846320940000737, 45.21289146500004]}}, {"type": "Feature", "properties": {"Angle": 205}, "geometry": {"type": "Point", "coordinates": [0.7185994940000455, 44.79592278300004]}}, {"type": "Feature", "properties": {"Angle": 225}, "geometry": {"type": "Point", "coordinates": [0.8847734060000221, 44.47905530600008]}}, {"type": "Feature", "properties": {"Angle": 130}, "geometry": {"type": "Point", "coordinates": [16.258170911000036, 47.978975551000076]}}, {"type": "Feature", "properties": {"Angle": 274}, "geometry": {"type": "Point", "coordinates": [17.239179061000073, 46.964500445000056]}}, {"type": "Feature", "properties": {"Angle": 344}, "geometry": {"type": "Point", "coordinates": [17.923299881000048, 47.49438322900005]}}, {"type": "Feature", "properties": {"Angle": 26}, "geometry": {"type": "Point", "coordinates": [18.888443554000048, 47.668999781000025]}}, {"type": "Feature", "properties": {"Angle": 12}, "geometry": {"type": "Point", "coordinates": [18.526075465000076, 50.54170749900004]}}, {"type": "Feature", "properties": {"Angle": 5}, "geometry": {"type": "Point", "coordinates": [17.940199620000044, 50.77420875800004]}}, {"type": "Feature", "properties": {"Angle": 0}, "geometry": {"type": "Point", "coordinates": [18.66274130900007, 51.27554365800006]}}, {"type": "Feature", "properties": {"Angle": 2}, "geometry": {"type": "Point", "coordinates": [19.301505576000068, 51.28445664800006]}}, {"type": "Feature", "properties": {"Angle": 20}, "geometry": {"type": "Point", "coordinates": [19.954237729000056, 51.113585631000035]}}, {"type": "Feature", "properties": {"Angle": 0}, "geometry": {"type": "Point", "coordinates": [20.489574596000068, 50.978443998000046]}}, {"type": "Feature", "properties": {"Angle": 45}, "geometry": {"type": "Point", "coordinates": [21.05268516600006, 50.91181947800004]}}, {"type": "Feature", "properties": {"Angle": 18}, "geometry": {"type": "Point", "coordinates": [22.102664189000052, 51.274340549000044]}}, {"type": "Feature", "properties": {"Angle": 335}, "geometry": {"type": "Point", "coordinates": [22.797981408000055, 51.35871597200003]}}, {"type": "Feature", "properties": {"Angle": 273}, "geometry": {"type": "Point", "coordinates": [23.54102323400008, 51.75076152300005]}}, {"type": "Feature", "properties": {"Angle": 235}, "geometry": {"type": "Point", "coordinates": [23.645399698000062, 53.68910206500004]}}, {"type": "Feature", "properties": {"Angle": 167}, "geometry": {"type": "Point", "coordinates": [21.75813163500004, 54.549326446000066]}}, {"type": "Feature", "properties": {"Angle": 178}, "geometry": {"type": "Point", "coordinates": [22.53591073000007, 54.32133014100003]}}, {"type": "Feature", "properties": {"Angle": 170}, "geometry": {"type": "Point", "coordinates": [23.15558330300007, 54.46726498400005]}}, {"type": "Feature", "properties": {"Angle": 240}, "geometry": {"type": "Point", "coordinates": [23.56283141700004, 55.74648658700005]}}, {"type": "Feature", "properties": {"Angle": 213}, "geometry": {"type": "Point", "coordinates": [23.21826972100007, 56.08849707200005]}}, {"type": "Feature", "properties": {"Angle": 198}, "geometry": {"type": "Point", "coordinates": [22.721300917000065, 56.571919482000055]}}, {"type": "Feature", "properties": {"Angle": 187}, "geometry": {"type": "Point", "coordinates": [21.98745686500007, 56.549235966000026]}}, {"type": "Feature", "properties": {"Angle": 280}, "geometry": {"type": "Point", "coordinates": [25.637696009000024, 43.58998976100003]}}, {"type": "Feature", "properties": {"Angle": 0}, "geometry": {"type": "Point", "coordinates": [26.155684144000077, 43.85645066400008]}}, {"type": "Feature", "properties": {"Angle": 355}, "geometry": {"type": "Point", "coordinates": [26.718424708000043, 43.96219247600004]}}, {"type": "Feature", "properties": {"Angle": 333}, "geometry": {"type": "Point", "coordinates": [27.346216121000054, 44.01618969200007]}}, {"type": "Feature", "properties": {"Angle": 349}, "geometry": {"type": "Point", "coordinates": [27.950412609000068, 44.28470099400005]}}, {"type": "Feature", "properties": {"Angle": 24}, "geometry": {"type": "Point", "coordinates": [19.821881077000057, 40.386332106000054]}}, {"type": "Feature", "properties": {"Angle": 37}, "geometry": {"type": "Point", "coordinates": [20.431484519000037, 40.15879006500006]}}, {"type": "Feature", "properties": {"Angle": 67}, "geometry": {"type": "Point", "coordinates": [20.670602560000077, 39.84546421500005]}}, {"type": "Feature", "properties": {"Angle": 24}, "geometry": {"type": "Point", "coordinates": [21.13387317400003, 40.10289903100005]}}, {"type": "Feature", "properties": {"Angle": 42}, "geometry": {"type": "Point", "coordinates": [21.576287342000057, 39.73246121900007]}}, {"type": "Feature", "properties": {"Angle": 61}, "geometry": {"type": "Point", "coordinates": [21.279949929000054, 38.69136974600008]}}, {"type": "Feature", "properties": {"Angle": 85}, "geometry": {"type": "Point", "coordinates": [42.37599656200007, 65.61205611800005]}}, {"type": "Feature", "properties": {"Angle": 137}, "geometry": {"type": "Point", "coordinates": [43.679206331000046, 65.04670793100007]}}, {"type": "Feature", "properties": {"Angle": 149}, "geometry": {"type": "Point", "coordinates": [43.020010840000054, 64.22613623400008]}}, {"type": "Feature", "properties": {"Angle": 130}, "geometry": {"type": "Point", "coordinates": [42.234719736000045, 63.61800032200006]}}, {"type": "Feature", "properties": {"Angle": 140}, "geometry": {"type": "Point", "coordinates": [41.99556260300005, 62.94730550700007]}}, {"type": "Feature", "properties": {"Angle": 145}, "geometry": {"type": "Point", "coordinates": [41.342614516000026, 62.377300724000065]}}, {"type": "Feature", "properties": {"Angle": 134}, "geometry": {"type": "Point", "coordinates": [40.58888899100003, 61.531160775000046]}}, {"type": "Feature", "properties": {"Angle": 168}, "geometry": {"type": "Point", "coordinates": [38.648673479000024, 62.06327939300007]}}, {"type": "Feature", "properties": {"Angle": 95}, "geometry": {"type": "Point", "coordinates": [39.16573818900008, 61.07486829800007]}}, {"type": "Feature", "properties": {"Angle": 152}, "geometry": {"type": "Point", "coordinates": [38.90521361400005, 60.38176763100006]}}, {"type": "Feature", "properties": {"Angle": 97}, "geometry": {"type": "Point", "coordinates": [39.30802640100006, 63.43317320600005]}}, {"type": "Feature", "properties": {"Angle": 145}, "geometry": {"type": "Point", "coordinates": [37.323179150000044, 61.625211844000034]}}, {"type": "Feature", "properties": {"Angle": 132}, "geometry": {"type": "Point", "coordinates": [36.56428173000006, 60.77839983000007]}}, {"type": "Feature", "properties": {"Angle": 176}, "geometry": {"type": "Point", "coordinates": [35.25373367700007, 60.37935838000004]}}, {"type": "Feature", "properties": {"Angle": 45}, "geometry": {"type": "Point", "coordinates": [34.78548484400005, 59.380810835000034]}}, {"type": "Feature", "properties": {"Angle": 104}, "geometry": {"type": "Point", "coordinates": [34.70550623200006, 58.411934303000066]}}, {"type": "Feature", "properties": {"Angle": 68}, "geometry": {"type": "Point", "coordinates": [34.54095211500004, 57.698727560000066]}}, {"type": "Feature", "properties": {"Angle": 3}, "geometry": {"type": "Point", "coordinates": [36.225418673000036, 57.49227754700007]}}, {"type": "Feature", "properties": {"Angle": 73}, "geometry": {"type": "Point", "coordinates": [37.00958536100006, 56.903792741000075]}}, {"type": "Feature", "properties": {"Angle": 90}, "geometry": {"type": "Point", "coordinates": [32.817538961000025, 54.35595500200003]}}, {"type": "Feature", "properties": {"Angle": 135}, "geometry": {"type": "Point", "coordinates": [32.67741940900004, 54.88724436800004]}}, {"type": "Feature", "properties": {"Angle": 117}, "geometry": {"type": "Point", "coordinates": [32.59520597900007, 55.40646079900006]}}, {"type": "Feature", "properties": {"Angle": 18}, "geometry": {"type": "Point", "coordinates": [32.14761664700006, 56.76485931800005]}}, {"type": "Feature", "properties": {"Angle": 45}, "geometry": {"type": "Point", "coordinates": [33.103352323000024, 57.24591183400008]}}, {"type": "Feature", "properties": {"Angle": 45}, "geometry": {"type": "Point", "coordinates": [33.88302648300004, 56.903066007000064]}}, {"type": "Feature", "properties": {"Angle": 67}, "geometry": {"type": "Point", "coordinates": [34.13729911900003, 56.29705201400003]}}, {"type": "Feature", "properties": {"Angle": 5}, "geometry": {"type": "Point", "coordinates": [34.82331480200003, 55.760941615000036]}}, {"type": "Feature", "properties": {"Angle": 355}, "geometry": {"type": "Point", "coordinates": [35.75819686400007, 55.29823311200005]}}, {"type": "Feature", "properties": {"Angle": 342}, "geometry": {"type": "Point", "coordinates": [36.01020215200003, 54.23431986200006]}}, {"type": "Feature", "properties": {"Angle": 18}, "geometry": {"type": "Point", "coordinates": [36.663872473000026, 53.98622047100008]}}, {"type": "Feature", "properties": {"Angle": 41}, "geometry": {"type": "Point", "coordinates": [37.64288318700005, 54.254464717000076]}}, {"type": "Feature", "properties": {"Angle": 7}, "geometry": {"type": "Point", "coordinates": [38.98526249100007, 53.711088319000055]}}, {"type": "Feature", "properties": {"Angle": 11}, "geometry": {"type": "Point", "coordinates": [39.53872915900007, 53.03442942000004]}}, {"type": "Feature", "properties": {"Angle": 270}, "geometry": {"type": "Point", "coordinates": [41.00648075400005, 56.13584127800004]}}, {"type": "Feature", "properties": {"Angle": 347}, "geometry": {"type": "Point", "coordinates": [41.44446609000005, 56.735700604000044]}}, {"type": "Feature", "properties": {"Angle": 58}, "geometry": {"type": "Point", "coordinates": [42.29188726700005, 56.666156098000044]}}, {"type": "Feature", "properties": {"Angle": 354}, "geometry": {"type": "Point", "coordinates": [42.954748196000025, 56.38294493300003]}}, {"type": "Feature", "properties": {"Angle": 359}, "geometry": {"type": "Point", "coordinates": [43.10010874100004, 54.918128237000076]}}, {"type": "Feature", "properties": {"Angle": 5}, "geometry": {"type": "Point", "coordinates": [43.91889435300004, 54.91860505600005]}}, {"type": "Feature", "properties": {"Angle": 10}, "geometry": {"type": "Point", "coordinates": [44.798144783000055, 54.81905188400003]}}, {"type": "Feature", "properties": {"Angle": 58}, "geometry": {"type": "Point", "coordinates": [45.093346230000066, 52.71236457100008]}}, {"type": "Feature", "properties": {"Angle": 154}, "geometry": {"type": "Point", "coordinates": [44.77106162100006, 52.31133349600003]}}, {"type": "Feature", "properties": {"Angle": 32}, "geometry": {"type": "Point", "coordinates": [44.68335312100004, 51.74752687600005]}}, {"type": "Feature", "properties": {"Angle": 347}, "geometry": {"type": "Point", "coordinates": [45.54095563300007, 52.093297911000036]}}, {"type": "Feature", "properties": {"Angle": 167}, "geometry": {"type": "Point", "coordinates": [46.35513688700007, 53.797303138000075]}}, {"type": "Feature", "properties": {"Angle": 170}, "geometry": {"type": "Point", "coordinates": [47.14442528700005, 53.831495165000035]}}, {"type": "Feature", "properties": {"Angle": 270}, "geometry": {"type": "Point", "coordinates": [47.25469803400006, 52.99972958300003]}}, {"type": "Feature", "properties": {"Angle": 325}, "geometry": {"type": "Point", "coordinates": [47.14963596900003, 52.41016745400003]}}, {"type": "Feature", "properties": {"Angle": 0}, "geometry": {"type": "Point", "coordinates": [40.405136921000064, 44.33305747600008]}}, {"type": "Feature", "properties": {"Angle": 352}, "geometry": {"type": "Point", "coordinates": [41.51030085100007, 44.20224251800005]}}, {"type": "Feature", "properties": {"Angle": 12}, "geometry": {"type": "Point", "coordinates": [42.470924929000034, 44.09488119100007]}}, {"type": "Feature", "properties": {"Angle": 41}, "geometry": {"type": "Point", "coordinates": [43.177308149000055, 43.76917687100007]}}, {"type": "Feature", "properties": {"Angle": 60}, "geometry": {"type": "Point", "coordinates": [43.70323723900003, 43.23595411500003]}}, {"type": "Feature", "properties": {"Angle": 356}, "geometry": {"type": "Point", "coordinates": [44.28465840700005, 42.98292346100004]}}, {"type": "Feature", "properties": {"Angle": 3}, "geometry": {"type": "Point", "coordinates": [44.96035486100004, 42.97050459600007]}}, {"type": "Feature", "properties": {"Angle": 353}, "geometry": {"type": "Point", "coordinates": [45.968022835000056, 42.95203500400004]}}, {"type": "Feature", "properties": {"Angle": 43}, "geometry": {"type": "Point", "coordinates": [46.966511549000074, 42.78302768900005]}}, {"type": "Feature", "properties": {"Angle": 64}, "geometry": {"type": "Point", "coordinates": [47.574025309000035, 42.63293220200006]}}, {"type": "Feature", "properties": {"Angle": 57}, "geometry": {"type": "Point", "coordinates": [47.88586221800006, 42.103503542000055]}}, {"type": "Feature", "properties": {"Angle": 9}, "geometry": {"type": "Point", "coordinates": [40.38050582300008, 33.738077959000066]}}, {"type": "Feature", "properties": {"Angle": 19}, "geometry": {"type": "Point", "coordinates": [41.83698071300006, 33.218805135000025]}}, {"type": "Feature", "properties": {"Angle": 54}, "geometry": {"type": "Point", "coordinates": [42.94254053000003, 32.61634070400004]}}, {"type": "Feature", "properties": {"Angle": 33}, "geometry": {"type": "Point", "coordinates": [44.13279016400003, 31.607955901000025]}}, {"type": "Feature", "properties": {"Angle": 45}, "geometry": {"type": "Point", "coordinates": [45.48407593400003, 30.82470168100008]}}, {"type": "Feature", "properties": {"Angle": 122}, "geometry": {"type": "Point", "coordinates": [45.65210841100003, 29.59799382600005]}}, {"type": "Feature", "properties": {"Angle": 43}, "geometry": {"type": "Point", "coordinates": [45.19741706000008, 28.166647629000067]}}, {"type": "Feature", "properties": {"Angle": 31}, "geometry": {"type": "Point", "coordinates": [46.16031504100005, 26.978580056000055]}}, {"type": "Feature", "properties": {"Angle": 57}, "geometry": {"type": "Point", "coordinates": [47.66687318400005, 26.327084957000068]}}, {"type": "Feature", "properties": {"Angle": 73}, "geometry": {"type": "Point", "coordinates": [48.45074604500007, 25.113602401000037]}}, {"type": "Feature", "properties": {"Angle": 102}, "geometry": {"type": "Point", "coordinates": [48.55985347500007, 23.63625715300003]}}, {"type": "Feature", "properties": {"Angle": 135}, "geometry": {"type": "Point", "coordinates": [47.71958553800005, 22.454473505000067]}}, {"type": "Feature", "properties": {"Angle": 125}, "geometry": {"type": "Point", "coordinates": [47.05287918200003, 21.41141529400005]}}, {"type": "Feature", "properties": {"Angle": 129}, "geometry": {"type": "Point", "coordinates": [46.20474753500008, 20.26403143400006]}}, {"type": "Feature", "properties": {"Angle": 48}, "geometry": {"type": "Point", "coordinates": [46.21470579700008, 18.83702364000004]}}, {"type": "Feature", "properties": {"Angle": 305}, "geometry": {"type": "Point", "coordinates": [47.61149682300004, 16.59697625800004]}}, {"type": "Feature", "properties": {"Angle": 357}, "geometry": {"type": "Point", "coordinates": [48.74723474700005, 17.777268269000047]}}, {"type": "Feature", "properties": {"Angle": 325}, "geometry": {"type": "Point", "coordinates": [50.18404990200003, 18.334627820000037]}}, {"type": "Feature", "properties": {"Angle": 338}, "geometry": {"type": "Point", "coordinates": [52.00694901800006, 18.59539499300007]}}, {"type": "Feature", "properties": {"Angle": 318}, "geometry": {"type": "Point", "coordinates": [54.25619510200005, 19.233768441000052]}}, {"type": "Feature", "properties": {"Angle": 187}, "geometry": {"type": "Point", "coordinates": [50.82082723700006, 10.812490616000048]}}, {"type": "Feature", "properties": {"Angle": 188}, "geometry": {"type": "Point", "coordinates": [50.144446095000035, 10.635432828000035]}}, {"type": "Feature", "properties": {"Angle": 195}, "geometry": {"type": "Point", "coordinates": [49.68382127600006, 10.856836661000045]}}, {"type": "Feature", "properties": {"Angle": 35}, "geometry": {"type": "Point", "coordinates": [49.63555389000004, 10.361386727000024]}}, {"type": "Feature", "properties": {"Angle": 355}, "geometry": {"type": "Point", "coordinates": [50.421421104000046, 10.299552951000067]}}, {"type": "Feature", "properties": {"Angle": 209}, "geometry": {"type": "Point", "coordinates": [48.717948085000046, 8.894954121000069]}}, {"type": "Feature", "properties": {"Angle": 179}, "geometry": {"type": "Point", "coordinates": [47.934070560000066, 9.029302078000057]}}, {"type": "Feature", "properties": {"Angle": 180}, "geometry": {"type": "Point", "coordinates": [47.27870494600006, 9.19634418000004]}}, {"type": "Feature", "properties": {"Angle": 48}, "geometry": {"type": "Point", "coordinates": [46.71346881200003, 9.090549014000032]}}, {"type": "Feature", "properties": {"Angle": 18}, "geometry": {"type": "Point", "coordinates": [47.29165274300004, 8.643302215000062]}}, {"type": "Feature", "properties": {"Angle": 359}, "geometry": {"type": "Point", "coordinates": [47.96611739700006, 8.520152992000021]}}, {"type": "Feature", "properties": {"Angle": 12}, "geometry": {"type": "Point", "coordinates": [48.73276351900006, 8.435559291000061]}}, {"type": "Feature", "properties": {"Angle": 231}, "geometry": {"type": "Point", "coordinates": [40.71577761900005, 2.8706620430000385]}}, {"type": "Feature", "properties": {"Angle": 249}, "geometry": {"type": "Point", "coordinates": [41.03294673600004, 2.361857606000058]}}, {"type": "Feature", "properties": {"Angle": 182}, "geometry": {"type": "Point", "coordinates": [41.42014915800007, 2.200929879000057]}}, {"type": "Feature", "properties": {"Angle": 180}, "geometry": {"type": "Point", "coordinates": [41.99558084100005, 1.9596253380000235]}}, {"type": "Feature", "properties": {"Angle": 208}, "geometry": {"type": "Point", "coordinates": [42.530518896000046, 1.9164290800000572]}}, {"type": "Feature", "properties": {"Angle": 186}, "geometry": {"type": "Point", "coordinates": [121.36216513000011, 66.85870595700004]}}, {"type": "Feature", "properties": {"Angle": 92}, "geometry": {"type": "Point", "coordinates": [119.78151483500005, 66.24078780400004]}}, {"type": "Feature", "properties": {"Angle": 147}, "geometry": {"type": "Point", "coordinates": [117.32188268200002, 65.24011534100003]}}, {"type": "Feature", "properties": {"Angle": 118}, "geometry": {"type": "Point", "coordinates": [116.20661562200007, 64.36486546700007]}}, {"type": "Feature", "properties": {"Angle": 340}, "geometry": {"type": "Point", "coordinates": [119.65917082700003, 61.04398758200006]}}, {"type": "Feature", "properties": {"Angle": 358}, "geometry": {"type": "Point", "coordinates": [121.38676657100007, 61.288214319000076]}}, {"type": "Feature", "properties": {"Angle": 359}, "geometry": {"type": "Point", "coordinates": [122.94257642500008, 61.421341090000055]}}, {"type": "Feature", "properties": {"Angle": 0}, "geometry": {"type": "Point", "coordinates": [124.43292780000002, 61.35321229900006]}}, {"type": "Feature", "properties": {"Angle": 347}, "geometry": {"type": "Point", "coordinates": [126.71052546700002, 61.33580613600003]}}, {"type": "Feature", "properties": {"Angle": 358}, "geometry": {"type": "Point", "coordinates": [128.2931774440001, 61.36675711700008]}}, {"type": "Feature", "properties": {"Angle": 198}, "geometry": {"type": "Point", "coordinates": [117.40873745300007, 39.992851150000035]}}, {"type": "Feature", "properties": {"Angle": 154}, "geometry": {"type": "Point", "coordinates": [115.78714586400008, 39.50248869100005]}}, {"type": "Feature", "properties": {"Angle": 98}, "geometry": {"type": "Point", "coordinates": [114.24588041000004, 36.75388340300003]}}, {"type": "Feature", "properties": {"Angle": 95}, "geometry": {"type": "Point", "coordinates": [114.07937562300003, 36.13124550600003]}}, {"type": "Feature", "properties": {"Angle": 340}, "geometry": {"type": "Point", "coordinates": [116.46642257100007, 36.36393410900007]}}, {"type": "Feature", "properties": {"Angle": 318}, "geometry": {"type": "Point", "coordinates": [117.05757402000006, 34.276932602000045]}}, {"type": "Feature", "properties": {"Angle": 250}, "geometry": {"type": "Point", "coordinates": [116.79208728900005, 33.79876094700006]}}, {"type": "Feature", "properties": {"Angle": 110}, "geometry": {"type": "Point", "coordinates": [117.13722404100008, 33.97042070100008]}}, {"type": "Feature", "properties": {"Angle": 120}, "geometry": {"type": "Point", "coordinates": [117.54723640200007, 34.34682774700008]}}, {"type": "Feature", "properties": {"Angle": 222}, "geometry": {"type": "Point", "coordinates": [133.33667335400003, -15.007408393999981]}}, {"type": "Feature", "properties": {"Angle": 200}, "geometry": {"type": "Point", "coordinates": [132.23870445900002, -14.52097187499993]}}, {"type": "Feature", "properties": {"Angle": 69}, "geometry": {"type": "Point", "coordinates": [131.6589309420001, -15.033507788999941]}}, {"type": "Feature", "properties": {"Angle": 83}, "geometry": {"type": "Point", "coordinates": [131.9187152500001, -16.241061789999947]}}, {"type": "Feature", "properties": {"Angle": 92}, "geometry": {"type": "Point", "coordinates": [131.6746293760001, -17.20997598899993]}}, {"type": "Feature", "properties": {"Angle": 250}, "geometry": {"type": "Point", "coordinates": [131.50192604900008, -18.093799540999953]}}, {"type": "Feature", "properties": {"Angle": 318}, "geometry": {"type": "Point", "coordinates": [136.9293244370001, -21.35202780999998]}}, {"type": "Feature", "properties": {"Angle": 324}, "geometry": {"type": "Point", "coordinates": [135.998554645, -21.99588433499997]}}, {"type": "Feature", "properties": {"Angle": 29}, "geometry": {"type": "Point", "coordinates": [136.47890952500006, -22.260669340999982]}}, {"type": "Feature", "properties": {"Angle": 336}, "geometry": {"type": "Point", "coordinates": [137.16523924900002, -22.46104888499997]}}, {"type": "Feature", "properties": {"Angle": 220}, "geometry": {"type": "Point", "coordinates": [137.43563348200007, -21.981597432999934]}}, {"type": "Feature", "properties": {"Angle": 0}, "geometry": {"type": "Point", "coordinates": [139.07455216000005, -22.536375203999967]}}, {"type": "Feature", "properties": {"Angle": 73}, "geometry": {"type": "Point", "coordinates": [138.34163092000006, -21.490137155999946]}}, {"type": "Feature", "properties": {"Angle": 16}, "geometry": {"type": "Point", "coordinates": [137.749539281, -20.853269225999952]}}, {"type": "Feature", "properties": {"Angle": 162}, "geometry": {"type": "Point", "coordinates": [136.70217961700007, -20.230634189999932]}}, {"type": "Feature", "properties": {"Angle": 238}, "geometry": {"type": "Point", "coordinates": [135.98502450500007, -19.960511078999957]}}, {"type": "Feature", "properties": {"Angle": 209}, "geometry": {"type": "Point", "coordinates": [134.85287825400007, -19.097424011999976]}}, {"type": "Feature", "properties": {"Angle": 335}, "geometry": {"type": "Point", "coordinates": [134.30553228300005, -18.344197262999955]}}, {"type": "Feature", "properties": {"Angle": 28}, "geometry": {"type": "Point", "coordinates": [135.05790826300006, -18.551818424999965]}}, {"type": "Feature", "properties": {"Angle": 26}, "geometry": {"type": "Point", "coordinates": [135.8365707480001, -19.25077224699993]}}, {"type": "Feature", "properties": {"Angle": 253}, "geometry": {"type": "Point", "coordinates": [135.4187751610001, -17.08399220499996]}}, {"type": "Feature", "properties": {"Angle": 178}, "geometry": {"type": "Point", "coordinates": [136.17386962700004, -17.261978796999927]}}, {"type": "Feature", "properties": {"Angle": 349}, "geometry": {"type": "Point", "coordinates": [137.82393553500003, -18.749153086999968]}}, {"type": "Feature", "properties": {"Angle": 225}, "geometry": {"type": "Point", "coordinates": [138.3793057160001, -19.642525132999936]}}, {"type": "Feature", "properties": {"Angle": 210}, "geometry": {"type": "Point", "coordinates": [140.23059505700007, -21.667093860999955]}}, {"type": "Feature", "properties": {"Angle": 75}, "geometry": {"type": "Point", "coordinates": [139.3976233510001, -35.16132682999995]}}, {"type": "Feature", "properties": {"Angle": 67}, "geometry": {"type": "Point", "coordinates": [139.528814419, -35.75217607999997]}}, {"type": "Feature", "properties": {"Angle": 58}, "geometry": {"type": "Point", "coordinates": [139.85972574800007, -36.36465485799994]}}, {"type": "Feature", "properties": {"Angle": 20}, "geometry": {"type": "Point", "coordinates": [140.464971385, -36.90300738199994]}}, {"type": "Feature", "properties": {"Angle": 36}, "geometry": {"type": "Point", "coordinates": [141.14062283700002, -37.245416029999944]}}, {"type": "Feature", "properties": {"Angle": 185}, "geometry": {"type": "Point", "coordinates": [-119.51130121799997, 60.894969755000034]}}, {"type": "Feature", "properties": {"Angle": 185}, "geometry": {"type": "Point", "coordinates": [-118.03101449699994, 60.51139249600004]}}, {"type": "Feature", "properties": {"Angle": 215}, "geometry": {"type": "Point", "coordinates": [-116.63285650299997, 60.13557187200007]}}, {"type": "Feature", "properties": {"Angle": 196}, "geometry": {"type": "Point", "coordinates": [-114.88764032999995, 60.641121198000064]}}, {"type": "Feature", "properties": {"Angle": 210}, "geometry": {"type": "Point", "coordinates": [-113.70542397699995, 59.82375371000006]}}, {"type": "Feature", "properties": {"Angle": 273}, "geometry": {"type": "Point", "coordinates": [-112.48078317799997, 58.789496547000056]}}, {"type": "Feature", "properties": {"Angle": 211}, "geometry": {"type": "Point", "coordinates": [-111.70622219899997, 57.91742778300005]}}, {"type": "Feature", "properties": {"Angle": 233}, "geometry": {"type": "Point", "coordinates": [-103.47459108899994, 54.06104882300008]}}, {"type": "Feature", "properties": {"Angle": 225}, "geometry": {"type": "Point", "coordinates": [-101.63694971199999, 53.46113134500007]}}, {"type": "Feature", "properties": {"Angle": 268}, "geometry": {"type": "Point", "coordinates": [-100.33697956499998, 51.91827263000005]}}, {"type": "Feature", "properties": {"Angle": 240}, "geometry": {"type": "Point", "coordinates": [-99.44118358299994, 50.66530461200006]}}, {"type": "Feature", "properties": {"Angle": 252}, "geometry": {"type": "Point", "coordinates": [-98.45265311699995, 49.309584682000036]}}, {"type": "Feature", "properties": {"Angle": 346}, "geometry": {"type": "Point", "coordinates": [-108.72087963499996, 45.34309972300008]}}, {"type": "Feature", "properties": {"Angle": 35}, "geometry": {"type": "Point", "coordinates": [-107.69164390799995, 45.04815895300004]}}, {"type": "Feature", "properties": {"Angle": 205}, "geometry": {"type": "Point", "coordinates": [-107.72553319199994, 44.60316163300007]}}, {"type": "Feature", "properties": {"Angle": 192}, "geometry": {"type": "Point", "coordinates": [-107.36362334399996, 44.03012993100003]}}, {"type": "Feature", "properties": {"Angle": 88}, "geometry": {"type": "Point", "coordinates": [-106.77840268699998, 44.07648003800006]}}, {"type": "Feature", "properties": {"Angle": 42}, "geometry": {"type": "Point", "coordinates": [-104.29251041599997, 45.11786107300003]}}, {"type": "Feature", "properties": {"Angle": 65}, "geometry": {"type": "Point", "coordinates": [-103.20358074499995, 44.34530371500006]}}, {"type": "Feature", "properties": {"Angle": 114}, "geometry": {"type": "Point", "coordinates": [-103.30031639299995, 43.429893062000076]}}, {"type": "Feature", "properties": {"Angle": 270}, "geometry": {"type": "Point", "coordinates": [-104.16986767599997, 43.47327401600006]}}, {"type": "Feature", "properties": {"Angle": 215}, "geometry": {"type": "Point", "coordinates": [-104.57986520799994, 44.00532597800003]}}, {"type": "Feature", "properties": {"Angle": 274}, "geometry": {"type": "Point", "coordinates": [-104.91927185799995, 44.68821667900005]}}, {"type": "Feature", "properties": {"Angle": 345}, "geometry": {"type": "Point", "coordinates": [-94.49076124299995, 17.394208995000042]}}, {"type": "Feature", "properties": {"Angle": 55}, "geometry": {"type": "Point", "coordinates": [-96.75901811099999, 18.72964591400006]}}, {"type": "Feature", "properties": {"Angle": 18}, "geometry": {"type": "Point", "coordinates": [-96.92420552199997, 19.122078977000058]}}, {"type": "Feature", "properties": {"Angle": 45}, "geometry": {"type": "Point", "coordinates": [-97.80882850299997, 20.21500499800004]}}, {"type": "Feature", "properties": {"Angle": 17}, "geometry": {"type": "Point", "coordinates": [-98.27925131999996, 20.687668073000054]}}, {"type": "Feature", "properties": {"Angle": 52}, "geometry": {"type": "Point", "coordinates": [-98.94416035799998, 21.422257181000077]}}, {"type": "Feature", "properties": {"Angle": 90}, "geometry": {"type": "Point", "coordinates": [-99.10459417399994, 23.276709225000047]}}, {"type": "Feature", "properties": {"Angle": 68}, "geometry": {"type": "Point", "coordinates": [-99.39133745299995, 24.087595046000047]}}, {"type": "Feature", "properties": {"Angle": 60}, "geometry": {"type": "Point", "coordinates": [-99.77749857399999, 24.786772995000035]}}, {"type": "Feature", "properties": {"Angle": 53}, "geometry": {"type": "Point", "coordinates": [-100.15027191699994, 25.40371594800007]}}, {"type": "Feature", "properties": {"Angle": 174}, "geometry": {"type": "Point", "coordinates": [-100.07795332899997, 29.102299129000073]}}, {"type": "Feature", "properties": {"Angle": 163}, "geometry": {"type": "Point", "coordinates": [-99.15415787099994, 29.403900432000057]}}, {"type": "Feature", "properties": {"Angle": 156}, "geometry": {"type": "Point", "coordinates": [-98.29629088899998, 29.58294167100007]}}, {"type": "Feature", "properties": {"Angle": 123}, "geometry": {"type": "Point", "coordinates": [-97.71752729399998, 30.126965557000062]}}, {"type": "Feature", "properties": {"Angle": 111}, "geometry": {"type": "Point", "coordinates": [-97.52344864099996, 30.76074591300005]}}, {"type": "Feature", "properties": {"Angle": 112}, "geometry": {"type": "Point", "coordinates": [-97.26889474199999, 31.489463115000035]}}, {"type": "Feature", "properties": {"Angle": 100}, "geometry": {"type": "Point", "coordinates": [-97.25046447799997, 32.55154565200007]}}, {"type": "Feature", "properties": {"Angle": 85}, "geometry": {"type": "Point", "coordinates": [-97.02088619599999, 33.55915281400007]}}, {"type": "Feature", "properties": {"Angle": 304}, "geometry": {"type": "Point", "coordinates": [-95.25671468299998, 36.482971391000035]}}, {"type": "Feature", "properties": {"Angle": 273}, "geometry": {"type": "Point", "coordinates": [-94.11109839499994, 37.56350714600006]}}, {"type": "Feature", "properties": {"Angle": 306}, "geometry": {"type": "Point", "coordinates": [-92.81099028599994, 39.33433141900008]}}, {"type": "Feature", "properties": {"Angle": 270}, "geometry": {"type": "Point", "coordinates": [-92.42594912599998, 40.35387944200005]}}, {"type": "Feature", "properties": {"Angle": 335}, "geometry": {"type": "Point", "coordinates": [-94.56387827599997, 42.77163642600004]}}, {"type": "Feature", "properties": {"Angle": 304}, "geometry": {"type": "Point", "coordinates": [-94.05108426399994, 44.01689161100006]}}, {"type": "Feature", "properties": {"Angle": 330}, "geometry": {"type": "Point", "coordinates": [-92.94034747699999, 45.232222396000054]}}, {"type": "Feature", "properties": {"Angle": 183}, "geometry": {"type": "Point", "coordinates": [-92.25454531599996, 35.83195390700007]}}, {"type": "Feature", "properties": {"Angle": 135}, "geometry": {"type": "Point", "coordinates": [-90.70515866499994, 36.472077511000066]}}, {"type": "Feature", "properties": {"Angle": 165}, "geometry": {"type": "Point", "coordinates": [-89.64644136299995, 37.07734621800006]}}, {"type": "Feature", "properties": {"Angle": 28}, "geometry": {"type": "Point", "coordinates": [-89.25971027399999, 37.54506722600007]}}, {"type": "Feature", "properties": {"Angle": 66}, "geometry": {"type": "Point", "coordinates": [-90.35694709799998, 39.48377244000005]}}, {"type": "Feature", "properties": {"Angle": 152}, "geometry": {"type": "Point", "coordinates": [-90.23379192299996, 41.46123725800004]}}, {"type": "Feature", "properties": {"Angle": 322}, "geometry": {"type": "Point", "coordinates": [-88.99040750399996, 43.897401873000035]}}, {"type": "Feature", "properties": {"Angle": 340}, "geometry": {"type": "Point", "coordinates": [-88.43037464499997, 44.779075153000065]}}, {"type": "Feature", "properties": {"Angle": 278}, "geometry": {"type": "Point", "coordinates": [-87.74258893399997, 45.695290011000054]}}, {"type": "Feature", "properties": {"Angle": 347}, "geometry": {"type": "Point", "coordinates": [-86.43386493299994, 46.546457770000075]}}, {"type": "Feature", "properties": {"Angle": 186}, "geometry": {"type": "Point", "coordinates": [-84.99489244299997, 46.01578373900003]}}, {"type": "Feature", "properties": {"Angle": 165}, "geometry": {"type": "Point", "coordinates": [-86.41444127899996, 45.76186180500008]}}, {"type": "Feature", "properties": {"Angle": 119}, "geometry": {"type": "Point", "coordinates": [-87.43824004199996, 44.56296744100007]}}, {"type": "Feature", "properties": {"Angle": 111}, "geometry": {"type": "Point", "coordinates": [-87.86962874799997, 43.36780939600004]}}, {"type": "Feature", "properties": {"Angle": 70}, "geometry": {"type": "Point", "coordinates": [-87.79119443799999, 42.208530910000036]}}, {"type": "Feature", "properties": {"Angle": 152}, "geometry": {"type": "Point", "coordinates": [-87.26592223999995, 40.77404897800005]}}, {"type": "Feature", "properties": {"Angle": 256}, "geometry": {"type": "Point", "coordinates": [-86.96731727499997, 39.346915860000024]}}, {"type": "Feature", "properties": {"Angle": 268}, "geometry": {"type": "Point", "coordinates": [-86.77836189199996, 38.26597714300004]}}, {"type": "Feature", "properties": {"Angle": 332}, "geometry": {"type": "Point", "coordinates": [-86.94634653499998, 37.10713886900004]}}, {"type": "Feature", "properties": {"Angle": 242}, "geometry": {"type": "Point", "coordinates": [-88.11750146999998, 36.66844866500003]}}, {"type": "Feature", "properties": {"Angle": 280}, "geometry": {"type": "Point", "coordinates": [-88.16881620499998, 35.59886256400006]}}, {"type": "Feature", "properties": {"Angle": 183}, "geometry": {"type": "Point", "coordinates": [-87.03444656899995, 34.270596789000024]}}, {"type": "Feature", "properties": {"Angle": 135}, "geometry": {"type": "Point", "coordinates": [-85.83981482999997, 34.72405310400006]}}, {"type": "Feature", "properties": {"Angle": 135}, "geometry": {"type": "Point", "coordinates": [-84.93828330499997, 35.75459151800004]}}, {"type": "Feature", "properties": {"Angle": 115}, "geometry": {"type": "Point", "coordinates": [-84.46692654199995, 36.79244519400004]}}, {"type": "Feature", "properties": {"Angle": 145}, "geometry": {"type": "Point", "coordinates": [-83.84268449499996, 37.46529940200003]}}, {"type": "Feature", "properties": {"Angle": 95}, "geometry": {"type": "Point", "coordinates": [-83.29028169499998, 39.037013374000026]}}, {"type": "Feature", "properties": {"Angle": 62}, "geometry": {"type": "Point", "coordinates": [-82.96597966699994, 39.96185658100006]}}, {"type": "Feature", "properties": {"Angle": 5}, "geometry": {"type": "Point", "coordinates": [-84.40982498599999, 41.26389713200007]}}, {"type": "Feature", "properties": {"Angle": 344}, "geometry": {"type": "Point", "coordinates": [-84.42897308299996, 42.351452135000045]}}, {"type": "Feature", "properties": {"Angle": 28}, "geometry": {"type": "Point", "coordinates": [-85.54361570699996, 43.07658377100006]}}, {"type": "Feature", "properties": {"Angle": 108}, "geometry": {"type": "Point", "coordinates": [-85.61491962499997, 44.12412766700004]}}, {"type": "Feature", "properties": {"Angle": 225}, "geometry": {"type": "Point", "coordinates": [-84.40512195199994, 44.253782587000046]}}, {"type": "Feature", "properties": {"Angle": 288}, "geometry": {"type": "Point", "coordinates": [-83.42470093599997, 43.351596683000025]}}, {"type": "Feature", "properties": {"Angle": 331}, "geometry": {"type": "Point", "coordinates": [-83.01508751299997, 42.606261147000055]}}, {"type": "Feature", "properties": {"Angle": 155}, "geometry": {"type": "Point", "coordinates": [-81.29633807799996, 42.66245687900005]}}, {"type": "Feature", "properties": {"Angle": 168}, "geometry": {"type": "Point", "coordinates": [-79.58072968099998, 42.848289342000044]}}, {"type": "Feature", "properties": {"Angle": 175}, "geometry": {"type": "Point", "coordinates": [-77.23607445899995, 42.93201645100004]}}, {"type": "Feature", "properties": {"Angle": 185}, "geometry": {"type": "Point", "coordinates": [-75.04891734599994, 42.852493320000065]}}, {"type": "Feature", "properties": {"Angle": 277}, "geometry": {"type": "Point", "coordinates": [-74.01368135699994, 42.01603170300007]}}, {"type": "Feature", "properties": {"Angle": 325}, "geometry": {"type": "Point", "coordinates": [-75.01207698799993, 41.12372570300005]}}, {"type": "Feature", "properties": {"Angle": 337}, "geometry": {"type": "Point", "coordinates": [-75.80205483699996, 40.77242725200006]}}, {"type": "Feature", "properties": {"Angle": 359}, "geometry": {"type": "Point", "coordinates": [-77.30086948299999, 36.42985184300005]}}, {"type": "Feature", "properties": {"Angle": 331}, "geometry": {"type": "Point", "coordinates": [-77.91452882999994, 35.86562027400004]}}, {"type": "Feature", "properties": {"Angle": 305}, "geometry": {"type": "Point", "coordinates": [-78.05357146999995, 34.87394297700007]}}, {"type": "Feature", "properties": {"Angle": 326}, "geometry": {"type": "Point", "coordinates": [-80.51884693099998, 34.690946186000076]}}, {"type": "Feature", "properties": {"Angle": 297}, "geometry": {"type": "Point", "coordinates": [-80.91547497599998, 34.10729476000006]}}, {"type": "Feature", "properties": {"Angle": 322}, "geometry": {"type": "Point", "coordinates": [-80.84743915499996, 33.04233037500006]}}, {"type": "Feature", "properties": {"Angle": 240}, "geometry": {"type": "Point", "coordinates": [-81.01395135599995, 28.58879898200007]}}, {"type": "Feature", "properties": {"Angle": 264}, "geometry": {"type": "Point", "coordinates": [-80.82200269799995, 27.853192831000058]}}, {"type": "Feature", "properties": {"Angle": 338}, "geometry": {"type": "Point", "coordinates": [-81.09526771299994, 27.28064691700007]}}, {"type": "Feature", "properties": {"Angle": 13}, "geometry": {"type": "Point", "coordinates": [-81.97359561099995, 27.29692805800005]}}, {"type": "Feature", "properties": {"Angle": 165}, "geometry": {"type": "Point", "coordinates": [-82.01301468799994, 28.198061007000035]}}, {"type": "Feature", "properties": {"Angle": 68}, "geometry": {"type": "Point", "coordinates": [-81.98247509399994, 28.82990873600005]}}, {"type": "Feature", "properties": {"Angle": 48}, "geometry": {"type": "Point", "coordinates": [-82.56933608799994, 30.41196406800003]}}, {"type": "Feature", "properties": {"Angle": 105}, "geometry": {"type": "Point", "coordinates": [-83.26226518699997, 31.19430411700006]}}, {"type": "Feature", "properties": {"Angle": 115}, "geometry": {"type": "Point", "coordinates": [-83.72526529699996, 31.92047156800004]}}, {"type": "Feature", "properties": {"Angle": 201}, "geometry": {"type": "Point", "coordinates": [-86.35046915399994, 31.044653100000062]}}, {"type": "Feature", "properties": {"Angle": 180}, "geometry": {"type": "Point", "coordinates": [-87.54981931099996, 31.36373720200004]}}]}