{"type": "FeatureCollection", "name": "WHYMAP WOKAM springs", "crs": {"type": "name", "properties": {"name": "urn:ogc:def:crs:OGC:1.3:CRS84"}}, "features": [{"type": "Feature", "properties": {"name": "Cave Creek Springs", "s_low_qms": 3.0, "s_high_qms": 35.0, "NR": "E4", "type": "karst spring high discharge"}, "geometry": {"type": "Point", "coordinates": [171.4000000000001, -42.10999999999996]}}, {"type": "Feature", "properties": {"name": "Te Waikoropupu Spring", "s_low_qms": 5.8, "s_high_qms": 21.0, "NR": "E3", "type": "karst spring high discharge"}, "geometry": {"type": "Point", "coordinates": [172.7700000000001, -40.849999999999966]}}, {"type": "Feature", "properties": {"name": "Caicayen", "s_low_qms": 0.01, "s_high_qms": 0.03, "NR": "A104", "type": "karst spring low discharge"}, "geometry": {"type": "Point", "coordinates": [-70.46916666699997, -37.45416666699998]}}, {"type": "Feature", "properties": {"name": "Águas Quentes", "s_low_qms": 0.2, "s_high_qms": 2.0, "NR": "A101", "type": "karst spring low discharge"}, "geometry": {"type": "Point", "coordinates": [-48.67083299999996, -24.56472199999996]}}, {"type": "Feature", "properties": {"name": "Jaguara", "s_low_qms": 0.6, "s_high_qms": 0.8, "NR": "A100", "type": "karst spring low discharge"}, "geometry": {"type": "Point", "coordinates": [-44.019822999999974, -19.488189999999975]}}, {"type": "Feature", "properties": {"name": "Chiflonkhakha", "s_low_qms": 0.5, "s_high_qms": -9999.0, "NR": "A93", "type": "karst spring low discharge"}, "geometry": {"type": "Point", "coordinates": [-65.77379999999994, -18.122099999999932]}}, {"type": "Feature", "properties": {"name": "São Bernardo", "s_low_qms": 5.0, "s_high_qms": -9999.0, "NR": "A98", "type": "karst spring high discharge"}, "geometry": {"type": "Point", "coordinates": [-46.36852699999997, -13.79758899999996]}}, {"type": "Feature", "properties": {"name": "Pantai Ngrenehan", "s_low_qms": 8.0, "s_high_qms": -9999.0, "NR": "C76", "type": "submarine karst spring"}, "geometry": {"type": "Point", "coordinates": [110.51420000000007, -8.121399999999937]}}, {"type": "Feature", "properties": {"name": "Timbuj Spring", "s_low_qms": 4.0, "s_high_qms": -9999.0, "NR": "A89", "type": "karst spring high discharge"}, "geometry": {"type": "Point", "coordinates": [-77.82779999999997, -6.543299999999931]}}, {"type": "Feature", "properties": {"name": "Negro River Spring", "s_low_qms": 15.0, "s_high_qms": -9999.0, "NR": "A91", "type": "karst spring high discharge"}, "geometry": {"type": "Point", "coordinates": [-77.25729999999999, -6.0890999999999735]}}, {"type": "Feature", "properties": {"name": "Tobio", "s_low_qms": 100.0, "s_high_qms": -9999.0, "NR": "E2", "type": "karst spring high discharge"}, "geometry": {"type": "Point", "coordinates": [151.3800000000001, -5.419999999999959]}}, {"type": "Feature", "properties": {"name": "Gua Besar", "s_low_qms": 2.2, "s_high_qms": -9999.0, "NR": "C74", "type": "karst spring high discharge"}, "geometry": {"type": "Point", "coordinates": [103.29576300000008, -3.8166709999999284]}}, {"type": "Feature", "properties": {"name": "Jijiga", "s_low_qms": 0.2, "s_high_qms": 0.4, "NR": "D9", "type": "water abstraction structure in karst aquifer"}, "geometry": {"type": "Point", "coordinates": [43.012860000000046, 9.014190000000042]}}, {"type": "Feature", "properties": {"name": "Borama", "s_low_qms": 0.2, "s_high_qms": 0.5, "NR": "D8", "type": "water abstraction structure in karst aquifer"}, "geometry": {"type": "Point", "coordinates": [43.22980000000007, 9.934290000000033]}}, {"type": "Feature", "properties": {"name": "Siburua", "s_low_qms": 0.4, "s_high_qms": -9999.0, "NR": "A87", "type": "karst spring low discharge"}, "geometry": {"type": "Point", "coordinates": [-69.58199999999994, 11.314000000000021]}}, {"type": "Feature", "properties": {"name": "Guam", "s_low_qms": -9999.0, "s_high_qms": -9999.0, "NR": "E1", "type": "submarine karst spring"}, "geometry": {"type": "Point", "coordinates": [144.79800000000012, 13.514900000000068]}}, {"type": "Feature", "properties": {"name": "Santiago Island", "s_low_qms": -9999.0, "s_high_qms": -9999.0, "NR": "C71", "type": "submarine karst spring"}, "geometry": {"type": "Point", "coordinates": [119.95000000000005, 16.42240000000004]}}, {"type": "Feature", "properties": {"name": "Chiquibul Cave System", "s_low_qms": 2.0, "s_high_qms": -9999.0, "NR": "A82", "type": "karst spring high discharge"}, "geometry": {"type": "Point", "coordinates": [-89.19999999999999, 16.700000000000045]}}, {"type": "Feature", "properties": {"name": "Boiling Hole", "s_low_qms": 0.7, "s_high_qms": 7.0, "NR": "A81", "type": "karst spring low discharge"}, "geometry": {"type": "Point", "coordinates": [-88.69999999999999, 17.200000000000045]}}, {"type": "Feature", "properties": {"name": "Grutas de Tolantongo", "s_low_qms": 3.4, "s_high_qms": -9999.0, "NR": "A77", "type": "karst spring high discharge"}, "geometry": {"type": "Point", "coordinates": [-98.99999999999994, 20.600000000000023]}}, {"type": "Feature", "properties": {"name": "Celestun Lagoon", "s_low_qms": -9999.0, "s_high_qms": -9999.0, "NR": "A69", "type": "submarine karst spring"}, "geometry": {"type": "Point", "coordinates": [-90.41659999999996, 20.75410000000005]}}, {"type": "Feature", "properties": {"name": "Puerto Morelos", "s_low_qms": -9999.0, "s_high_qms": -9999.0, "NR": "A68", "type": "submarine karst spring"}, "geometry": {"type": "Point", "coordinates": [-86.87359999999995, 20.846600000000024]}}, {"type": "Feature", "properties": {"name": "Nam La Spring", "s_low_qms": 0.8, "s_high_qms": 53.0, "NR": "C65", "type": "karst spring low discharge"}, "geometry": {"type": "Point", "coordinates": [103.91277200000007, 21.323281000000065]}}, {"type": "Feature", "properties": {"name": "Nacimiento del Rio Coy", "s_low_qms": 13.0, "s_high_qms": 236.0, "NR": "A76", "type": "karst spring high discharge"}, "geometry": {"type": "Point", "coordinates": [-98.97531789999994, 21.732193600000073]}}, {"type": "Feature", "properties": {"name": "Nacimiento del Rio Choy", "s_low_qms": 1.5, "s_high_qms": 100.0, "NR": "A75", "type": "karst spring low discharge"}, "geometry": {"type": "Point", "coordinates": [-98.88476049999997, 21.98829420000004]}}, {"type": "Feature", "properties": {"name": "Nacimiento del Rio Mante", "s_low_qms": 8.0, "s_high_qms": 343.0, "NR": "A74", "type": "karst spring high discharge"}, "geometry": {"type": "Point", "coordinates": [-99.04566859999994, 22.698262600000078]}}, {"type": "Feature", "properties": {"name": "El Zacaton", "s_low_qms": 0.1, "s_high_qms": 5.0, "NR": "A73", "type": "karst spring low discharge"}, "geometry": {"type": "Point", "coordinates": [-98.19999999999999, 22.990000000000066]}}, {"type": "Feature", "properties": {"name": "Nacimiento de Rio Frio", "s_low_qms": 0.6, "s_high_qms": 515.0, "NR": "A72", "type": "karst spring low discharge"}, "geometry": {"type": "Point", "coordinates": [-99.15088099999997, 22.990474800000072]}}, {"type": "Feature", "properties": {"name": "Lingshui", "s_low_qms": 4.0, "s_high_qms": -9999.0, "NR": "C58", "type": "karst spring high discharge"}, "geometry": {"type": "Point", "coordinates": [108.27471000000008, 23.158690000000036]}}, {"type": "Feature", "properties": {"name": "Baishiyan", "s_low_qms": 34.5, "s_high_qms": -9999.0, "NR": "C63", "type": "karst spring high discharge"}, "geometry": {"type": "Point", "coordinates": [104.23251000000005, 23.386310000000037]}}, {"type": "Feature", "properties": {"name": "Zhongzhai", "s_low_qms": 37.2, "s_high_qms": -9999.0, "NR": "C64", "type": "karst spring high discharge"}, "geometry": {"type": "Point", "coordinates": [104.67260000000005, 23.437780000000032]}}, {"type": "Feature", "properties": {"name": "Zuodeng", "s_low_qms": 21.3, "s_high_qms": -9999.0, "NR": "C59", "type": "karst spring high discharge"}, "geometry": {"type": "Point", "coordinates": [107.12608000000006, 23.59719000000007]}}, {"type": "Feature", "properties": {"name": "Nandong", "s_low_qms": 9.5, "s_high_qms": -9999.0, "NR": "C62", "type": "karst spring high discharge"}, "geometry": {"type": "Point", "coordinates": [103.28582222200004, 23.652022222000028]}}, {"type": "Feature", "properties": {"name": "Disu", "s_low_qms": 4.9, "s_high_qms": -9999.0, "NR": "C57", "type": "karst spring high discharge"}, "geometry": {"type": "Point", "coordinates": [108.10531000000009, 23.93268000000006]}}, {"type": "Feature", "properties": {"name": "Liulangdong", "s_low_qms": 23.2, "s_high_qms": -9999.0, "NR": "C61", "type": "karst spring high discharge"}, "geometry": {"type": "Point", "coordinates": [104.19582000000008, 24.04192000000006]}}, {"type": "Feature", "properties": {"name": "Fuwucun", "s_low_qms": 0.5, "s_high_qms": -9999.0, "NR": "C56", "type": "karst spring low discharge"}, "geometry": {"type": "Point", "coordinates": [113.23472222200007, 24.382222222000053]}}, {"type": "Feature", "properties": {"name": "Dagengcun", "s_low_qms": 7.0, "s_high_qms": -9999.0, "NR": "C55", "type": "karst spring high discharge"}, "geometry": {"type": "Point", "coordinates": [112.27611111100009, 24.696666667000045]}}, {"type": "Feature", "properties": {"name": "Luofan", "s_low_qms": 8.4, "s_high_qms": -9999.0, "NR": "C54", "type": "karst spring high discharge"}, "geometry": {"type": "Point", "coordinates": [105.81159000000008, 24.983660000000043]}}, {"type": "Feature", "properties": {"name": "Krem Mahabon", "s_low_qms": 1.3, "s_high_qms": -9999.0, "NR": "C68", "type": "karst spring low discharge"}, "geometry": {"type": "Point", "coordinates": [92.43722200000008, 25.15055600000005]}}, {"type": "Feature", "properties": {"name": "Waimengtang", "s_low_qms": 6.6, "s_high_qms": -9999.0, "NR": "C53", "type": "karst spring high discharge"}, "geometry": {"type": "Point", "coordinates": [107.88645000000008, 25.410650000000032]}}, {"type": "Feature", "properties": {"name": "Daxiaojing", "s_low_qms": 4.7, "s_high_qms": -9999.0, "NR": "C51", "type": "karst spring high discharge"}, "geometry": {"type": "Point", "coordinates": [106.75142000000005, 25.42485000000005]}}, {"type": "Feature", "properties": {"name": "Ain El Gabal", "s_low_qms": 0.5, "s_high_qms": -9999.0, "NR": "D6", "type": "water abstraction structure in karst aquifer"}, "geometry": {"type": "Point", "coordinates": [28.950890000000072, 25.529990000000055]}}, {"type": "Feature", "properties": {"name": "Biscayne Bay", "s_low_qms": -9999.0, "s_high_qms": -9999.0, "NR": "A66", "type": "submarine karst spring"}, "geometry": {"type": "Point", "coordinates": [-80.23359999999997, 25.55690000000004]}}, {"type": "Feature", "properties": {"name": "Huanghou", "s_low_qms": 0.4, "s_high_qms": -9999.0, "NR": "C52", "type": "water abstraction structure in karst aquifer"}, "geometry": {"type": "Point", "coordinates": [107.54504900000006, 25.822132000000067]}}, {"type": "Feature", "properties": {"name": "Xincun", "s_low_qms": 4.8, "s_high_qms": -9999.0, "NR": "C46", "type": "karst spring high discharge"}, "geometry": {"type": "Point", "coordinates": [103.29736000000008, 26.417950000000076]}}, {"type": "Feature", "properties": {"name": "Wangjiadajing", "s_low_qms": 1.3, "s_high_qms": -9999.0, "NR": "C48", "type": "karst spring low discharge"}, "geometry": {"type": "Point", "coordinates": [106.78860700000007, 26.560939000000076]}}, {"type": "Feature", "properties": {"name": "Dalongjing", "s_low_qms": 0.2, "s_high_qms": -9999.0, "NR": "C49", "type": "karst spring low discharge"}, "geometry": {"type": "Point", "coordinates": [107.98121200000008, 26.56686700000006]}}, {"type": "Feature", "properties": {"name": "Zhijindaquan", "s_low_qms": 0.4, "s_high_qms": -9999.0, "NR": "C47", "type": "karst spring low discharge"}, "geometry": {"type": "Point", "coordinates": [105.77054200000003, 26.66345000000007]}}, {"type": "Feature", "properties": {"name": "Yunpan", "s_low_qms": 3.0, "s_high_qms": -9999.0, "NR": "C41", "type": "karst spring high discharge"}, "geometry": {"type": "Point", "coordinates": [109.59872000000007, 27.948010000000068]}}, {"type": "Feature", "properties": {"name": "Muaijing", "s_low_qms": 0.01, "s_high_qms": -9999.0, "NR": "C45", "type": "thermal karst spring"}, "geometry": {"type": "Point", "coordinates": [104.65645300000006, 28.062952000000053]}}, {"type": "Feature", "properties": {"name": "Banqiao", "s_low_qms": 4.1, "s_high_qms": -9999.0, "NR": "C44", "type": "karst spring high discharge"}, "geometry": {"type": "Point", "coordinates": [102.50768000000005, 28.639800000000037]}}, {"type": "Feature", "properties": {"name": "Longtan", "s_low_qms": 0.6, "s_high_qms": -9999.0, "NR": "C40", "type": "karst spring low discharge"}, "geometry": {"type": "Point", "coordinates": [108.95277777800004, 28.724861111000052]}}, {"type": "Feature", "properties": {"name": "Volusia Blue Spring", "s_low_qms": 1.8, "s_high_qms": 6.0, "NR": "A65", "type": "karst spring low discharge"}, "geometry": {"type": "Point", "coordinates": [-81.33959999999996, 28.947500000000048]}}, {"type": "Feature", "properties": {"name": "Rainbow Spring", "s_low_qms": 13.8, "s_high_qms": 35.0, "NR": "A64", "type": "karst spring high discharge"}, "geometry": {"type": "Point", "coordinates": [-82.43759999999997, 29.102500000000077]}}, {"type": "Feature", "properties": {"name": "Chehel cheshmeh", "s_low_qms": 1.9, "s_high_qms": -9999.0, "NR": "C22", "type": "karst spring low discharge"}, "geometry": {"type": "Point", "coordinates": [52.53424220000005, 29.109780430000058]}}, {"type": "Feature", "properties": {"name": "Leona Springs", "s_low_qms": 0.3, "s_high_qms": 3.0, "NR": "A26", "type": "karst spring low discharge"}, "geometry": {"type": "Point", "coordinates": [-99.74342999999999, 29.154360000000054]}}, {"type": "Feature", "properties": {"name": "Silver Springs Main", "s_low_qms": 15.3, "s_high_qms": 37.0, "NR": "A63", "type": "karst spring high discharge"}, "geometry": {"type": "Point", "coordinates": [-82.05259999999998, 29.21620000000007]}}, {"type": "Feature", "properties": {"name": "Siwa Springs", "s_low_qms": 0.01, "s_high_qms": -9999.0, "NR": "D5", "type": "karst spring low discharge"}, "geometry": {"type": "Point", "coordinates": [25.488420000000076, 29.219620000000077]}}, {"type": "Feature", "properties": {"name": "Las Moras Springs", "s_low_qms": 0.3, "s_high_qms": 3.0, "NR": "A24", "type": "karst spring low discharge"}, "geometry": {"type": "Point", "coordinates": [-100.42062999999996, 29.30940000000004]}}, {"type": "Feature", "properties": {"name": "Chexinwan", "s_low_qms": 32.8, "s_high_qms": -9999.0, "NR": "C38", "type": "karst spring high discharge"}, "geometry": {"type": "Point", "coordinates": [109.44394000000005, 29.457660000000033]}}, {"type": "Feature", "properties": {"name": "Goodenough Springs", "s_low_qms": 4.1, "s_high_qms": -9999.0, "NR": "A23", "type": "karst spring high discharge"}, "geometry": {"type": "Point", "coordinates": [-101.25315999999998, 29.536330000000078]}}, {"type": "Feature", "properties": {"name": "Masarm", "s_low_qms": 1.7, "s_high_qms": -9999.0, "NR": "C21", "type": "water abstraction structure in karst aquifer"}, "geometry": {"type": "Point", "coordinates": [52.14951311000004, 29.569048790000068]}}, {"type": "Feature", "properties": {"name": "Comal Springs", "s_low_qms": 0.01, "s_high_qms": 14.0, "NR": "A30", "type": "karst spring low discharge"}, "geometry": {"type": "Point", "coordinates": [-98.12250999999998, 29.706060000000036]}}, {"type": "Feature", "properties": {"name": "Crescent Beach", "s_low_qms": 40.0, "s_high_qms": -9999.0, "NR": "A62", "type": "submarine karst spring"}, "geometry": {"type": "Point", "coordinates": [-81.21359999999999, 29.76610000000005]}}, {"type": "Feature", "properties": {"name": "Sasan", "s_low_qms": 1.1, "s_high_qms": -9999.0, "NR": "C19", "type": "water abstraction structure in karst aquifer"}, "geometry": {"type": "Point", "coordinates": [51.55122148000004, 29.76947258000007]}}, {"type": "Feature", "properties": {"name": "Zhougongshan", "s_low_qms": 0.1, "s_high_qms": -9999.0, "NR": "C43", "type": "thermal karst spring"}, "geometry": {"type": "Point", "coordinates": [103.03311200000007, 30.00538800000004]}}, {"type": "Feature", "properties": {"name": "Yangjiatai", "s_low_qms": 3.0, "s_high_qms": -9999.0, "NR": "C36", "type": "karst spring high discharge"}, "geometry": {"type": "Point", "coordinates": [110.68305555600006, 30.062500000000057]}}, {"type": "Feature", "properties": {"name": "Nutall River Rise", "s_low_qms": 10.2, "s_high_qms": 10.0, "NR": "A60", "type": "karst spring high discharge"}, "geometry": {"type": "Point", "coordinates": [-83.96329999999995, 30.15050000000008]}}, {"type": "Feature", "properties": {"name": "Tirebagh", "s_low_qms": 1.2, "s_high_qms": 2.0, "NR": "C23", "type": "water abstraction structure in karst aquifer"}, "geometry": {"type": "Point", "coordinates": [52.62614266000003, 30.24429188000005]}}, {"type": "Feature", "properties": {"name": "Barton Springs", "s_low_qms": 1.8, "s_high_qms": -9999.0, "NR": "A28", "type": "karst spring low discharge"}, "geometry": {"type": "Point", "coordinates": [-97.77138999999994, 30.263540000000035]}}, {"type": "Feature", "properties": {"name": "Bonab", "s_low_qms": 1.1, "s_high_qms": 1.4, "NR": "C24", "type": "water abstraction structure in karst aquifer"}, "geometry": {"type": "Point", "coordinates": [53.17202214000008, 30.32112593000005]}}, {"type": "Feature", "properties": {"name": "Alapaha River Rise", "s_low_qms": 14.4, "s_high_qms": 20.0, "NR": "A61", "type": "karst spring high discharge"}, "geometry": {"type": "Point", "coordinates": [-83.08959999999996, 30.439000000000078]}}, {"type": "Feature", "properties": {"name": "Margoon Waterfall", "s_low_qms": 1.0, "s_high_qms": 2.0, "NR": "C20", "type": "water abstraction structure in karst aquifer"}, "geometry": {"type": "Point", "coordinates": [51.845978470000034, 30.490465830000062]}}, {"type": "Feature", "properties": {"name": "Ain El Gudeirat", "s_low_qms": 0.02, "s_high_qms": -9999.0, "NR": "D7", "type": "karst spring low discharge"}, "geometry": {"type": "Point", "coordinates": [34.404390000000035, 30.64044000000007]}}, {"type": "Feature", "properties": {"name": "Jackson Blue Spring", "s_low_qms": 1.6, "s_high_qms": 8.0, "NR": "A58", "type": "karst spring low discharge"}, "geometry": {"type": "Point", "coordinates": [-85.14009999999996, 30.790500000000065]}}, {"type": "Feature", "properties": {"name": "Comanche Springs", "s_low_qms": 0.3, "s_high_qms": 3.0, "NR": "A22", "type": "karst spring low discharge"}, "geometry": {"type": "Point", "coordinates": [-102.87721999999997, 30.884720000000073]}}, {"type": "Feature", "properties": {"name": "San Solomon Springs", "s_low_qms": 0.9, "s_high_qms": 2.0, "NR": "A21", "type": "karst spring low discharge"}, "geometry": {"type": "Point", "coordinates": [-103.78823999999997, 30.942920000000072]}}, {"type": "Feature", "properties": {"name": "Salado Springs", "s_low_qms": 0.03, "s_high_qms": 0.3, "NR": "A27", "type": "karst spring low discharge"}, "geometry": {"type": "Point", "coordinates": [-97.54361000099999, 30.945560000000057]}}, {"type": "Feature", "properties": {"name": "Yanzibang", "s_low_qms": 0.6, "s_high_qms": -9999.0, "NR": "C35", "type": "karst spring low discharge"}, "geometry": {"type": "Point", "coordinates": [109.93416666700006, 31.235833333000073]}}, {"type": "Feature", "properties": {"name": "Radium Spring", "s_low_qms": 0.5, "s_high_qms": 4.0, "NR": "A57", "type": "karst spring low discharge"}, "geometry": {"type": "Point", "coordinates": [-84.13659999999999, 31.52660000000003]}}, {"type": "Feature", "properties": {"name": "Gilmore Spring", "s_low_qms": 0.2, "s_high_qms": -9999.0, "NR": "A54", "type": "karst spring low discharge"}, "geometry": {"type": "Point", "coordinates": [-87.84359999999998, 31.574100000000044]}}, {"type": "Feature", "properties": {"name": "Osewichee Spring", "s_low_qms": 0.1, "s_high_qms": 0.5, "NR": "A56", "type": "karst spring low discharge"}, "geometry": {"type": "Point", "coordinates": [-83.19959999999998, 31.86910000000006]}}, {"type": "Feature", "properties": {"name": "Tangquan", "s_low_qms": 0.1, "s_high_qms": -9999.0, "NR": "C34", "type": "thermal karst spring"}, "geometry": {"type": "Point", "coordinates": [118.62789500000008, 32.059093000000075]}}, {"type": "Feature", "properties": {"name": "Rosh Ha'ayin Springs", "s_low_qms": 6.4, "s_high_qms": -9999.0, "NR": "C11", "type": "karst spring high discharge"}, "geometry": {"type": "Point", "coordinates": [34.964240000000075, 32.10069000000004]}}, {"type": "Feature", "properties": {"name": "Ayn Zayanah", "s_low_qms": 5.0, "s_high_qms": -9999.0, "NR": "D4", "type": "submarine karst spring"}, "geometry": {"type": "Point", "coordinates": [20.15960000000007, 32.21160000000003]}}, {"type": "Feature", "properties": {"name": "Rock Springs", "s_low_qms": 0.1, "s_high_qms": -9999.0, "NR": "A55", "type": "karst spring low discharge"}, "geometry": {"type": "Point", "coordinates": [-82.81679999999994, 32.403500000000065]}}, {"type": "Feature", "properties": {"name": "Jordan River Sources", "s_low_qms": 15.9, "s_high_qms": -9999.0, "NR": "C10", "type": "karst spring high discharge"}, "geometry": {"type": "Point", "coordinates": [35.56278000000003, 32.692980000000034]}}, {"type": "Feature", "properties": {"name": "Coldwater Spring", "s_low_qms": 0.2, "s_high_qms": -9999.0, "NR": "A44", "type": "karst spring low discharge"}, "geometry": {"type": "Point", "coordinates": [-85.92607999999996, 33.60372000000007]}}, {"type": "Feature", "properties": {"name": "Figeh Spring", "s_low_qms": 2.5, "s_high_qms": 13.0, "NR": "C9", "type": "karst spring high discharge"}, "geometry": {"type": "Point", "coordinates": [36.16154250000005, 33.61197720000007]}}, {"type": "Feature", "properties": {"name": "Panzethnag", "s_low_qms": 2.2, "s_high_qms": 3.0, "NR": "C26", "type": "karst spring high discharge"}, "geometry": {"type": "Point", "coordinates": [75.17278000000005, 33.613330000000076]}}, {"type": "Feature", "properties": {"name": "Zarka Spring", "s_low_qms": 6.9, "s_high_qms": 24.0, "NR": "C8", "type": "karst spring high discharge"}, "geometry": {"type": "Point", "coordinates": [35.94432610000007, 34.13610410000007]}}, {"type": "Feature", "properties": {"name": "Huntsville Spring", "s_low_qms": 0.01, "s_high_qms": 0.3, "NR": "A40", "type": "karst spring low discharge"}, "geometry": {"type": "Point", "coordinates": [-86.58586999999994, 34.72969000000006]}}, {"type": "Feature", "properties": {"name": "Tuscumbia Spring", "s_low_qms": 0.2, "s_high_qms": 0.9, "NR": "A39", "type": "karst spring low discharge"}, "geometry": {"type": "Point", "coordinates": [-87.70301999999998, 34.730120000000056]}}, {"type": "Feature", "properties": {"name": "Cave Springs", "s_low_qms": 0.6, "s_high_qms": 1.2, "NR": "A42", "type": "karst spring low discharge"}, "geometry": {"type": "Point", "coordinates": [-85.24832999999995, 35.19667000000004]}}, {"type": "Feature", "properties": {"name": "Almyros", "s_low_qms": 3.3, "s_high_qms": 30.0, "NR": "B89", "type": "karst spring high discharge"}, "geometry": {"type": "Point", "coordinates": [24.872480000000053, 35.41021000000006]}}, {"type": "Feature", "properties": {"name": "Sarchinar", "s_low_qms": 0.6, "s_high_qms": 7.0, "NR": "C17", "type": "karst spring low discharge"}, "geometry": {"type": "Point", "coordinates": [45.38363000000004, 35.58999000000006]}}, {"type": "Feature", "properties": {"name": "Buffalo Spring", "s_low_qms": 0.3, "s_high_qms": 0.7, "NR": "A45", "type": "karst spring low discharge"}, "geometry": {"type": "Point", "coordinates": [-83.56638999999996, 36.214170000000024]}}, {"type": "Feature", "properties": {"name": "Saruchawa", "s_low_qms": 1.8, "s_high_qms": 8.0, "NR": "C15", "type": "karst spring low discharge"}, "geometry": {"type": "Point", "coordinates": [44.75454000000008, 36.275280000000066]}}, {"type": "Feature", "properties": {"name": "Morrell Spring", "s_low_qms": 0.3, "s_high_qms": 0.9, "NR": "A47", "type": "karst spring low discharge"}, "geometry": {"type": "Point", "coordinates": [-82.22582999999997, 36.462780000000066]}}, {"type": "Feature", "properties": {"name": "Roaring River Spring", "s_low_qms": 0.2, "s_high_qms": 5.0, "NR": "A31", "type": "karst spring low discharge"}, "geometry": {"type": "Point", "coordinates": [-93.83232999899997, 36.59157000000005]}}, {"type": "Feature", "properties": {"name": "Jinanquan", "s_low_qms": 3.5, "s_high_qms": 4.0, "NR": "C33", "type": "karst spring high discharge"}, "geometry": {"type": "Point", "coordinates": [116.95830000000001, 36.61670000000004]}}, {"type": "Feature", "properties": {"name": "Stoupa", "s_low_qms": -9999.0, "s_high_qms": -9999.0, "NR": "B88", "type": "submarine karst spring"}, "geometry": {"type": "Point", "coordinates": [22.25550000000004, 36.84560000000005]}}, {"type": "Feature", "properties": {"name": "Khabour Ras el Aïn", "s_low_qms": 38.6, "s_high_qms": -9999.0, "NR": "C7", "type": "karst spring high discharge"}, "geometry": {"type": "Point", "coordinates": [40.344388700000025, 36.87731710000003]}}, {"type": "Feature", "properties": {"name": "Dumanli", "s_low_qms": 38.0, "s_high_qms": 50.0, "NR": "C3", "type": "karst spring high discharge"}, "geometry": {"type": "Point", "coordinates": [34.55171012000005, 36.90768027000007]}}, {"type": "Feature", "properties": {"name": "Big Spring", "s_low_qms": 6.7, "s_high_qms": 37.0, "NR": "A34", "type": "karst spring high discharge"}, "geometry": {"type": "Point", "coordinates": [-90.99404999999996, 36.95240000000007]}}, {"type": "Feature", "properties": {"name": "Gali Shirana", "s_low_qms": 1.6, "s_high_qms": 3.0, "NR": "C14", "type": "karst spring low discharge"}, "geometry": {"type": "Point", "coordinates": [43.45808000000005, 37.01883000000004]}}, {"type": "Feature", "properties": {"name": "Gökpınar", "s_low_qms": 6.2, "s_high_qms": 15.0, "NR": "C6", "type": "karst spring high discharge"}, "geometry": {"type": "Point", "coordinates": [38.03687445000003, 37.02410856000006]}}, {"type": "Feature", "properties": {"name": "Gökova", "s_low_qms": 10.2, "s_high_qms": 14.0, "NR": "C5", "type": "karst spring high discharge"}, "geometry": {"type": "Point", "coordinates": [37.33529870000007, 37.042017980000026]}}, {"type": "Feature", "properties": {"name": "Kırkgöz", "s_low_qms": 7.1, "s_high_qms": 63.0, "NR": "C2", "type": "karst spring high discharge"}, "geometry": {"type": "Point", "coordinates": [33.582588040000076, 37.05818537000005]}}, {"type": "Feature", "properties": {"name": "Kiveri Springs", "s_low_qms": -9999.0, "s_high_qms": -9999.0, "NR": "B87", "type": "submarine karst spring"}, "geometry": {"type": "Point", "coordinates": [22.738500000000045, 37.51630000000006]}}, {"type": "Feature", "properties": {"name": "Liulinquan", "s_low_qms": 2.8, "s_high_qms": -9999.0, "NR": "C30", "type": "water abstraction structure in karst aquifer"}, "geometry": {"type": "Point", "coordinates": [111.15000000000003, 37.67500000000007]}}, {"type": "Feature", "properties": {"name": "Bennett Spring", "s_low_qms": 2.5, "s_high_qms": 5.0, "NR": "A32", "type": "karst spring high discharge"}, "geometry": {"type": "Point", "coordinates": [-92.85635999999994, 37.71655000000004]}}, {"type": "Feature", "properties": {"name": "Maramec Spring", "s_low_qms": 1.6, "s_high_qms": 18.0, "NR": "A35", "type": "karst spring low discharge"}, "geometry": {"type": "Point", "coordinates": [-91.53312999999997, 37.953500000000076]}}, {"type": "Feature", "properties": {"name": "Niangziguan", "s_low_qms": 8.5, "s_high_qms": -9999.0, "NR": "C32", "type": "karst spring high discharge"}, "geometry": {"type": "Point", "coordinates": [113.8814010000001, 37.960969000000034]}}, {"type": "Feature", "properties": {"name": "Culverson Creek Springs", "s_low_qms": 1.3, "s_high_qms": -9999.0, "NR": "A50", "type": "karst spring low discharge"}, "geometry": {"type": "Point", "coordinates": [-80.37972199999996, 37.96722200000005]}}, {"type": "Feature", "properties": {"name": "Presidiana", "s_low_qms": 0.7, "s_high_qms": -9999.0, "NR": "B58", "type": "submarine karst spring"}, "geometry": {"type": "Point", "coordinates": [14.031944444000032, 38.039444444000026]}}, {"type": "Feature", "properties": {"name": "Hot Creek Spring", "s_low_qms": 0.03, "s_high_qms": 0.6, "NR": "A12", "type": "karst spring low discharge"}, "geometry": {"type": "Point", "coordinates": [-115.15339999999998, 38.382960000000026]}}, {"type": "Feature", "properties": {"name": "Lacey Spring", "s_low_qms": 0.1, "s_high_qms": 0.8, "NR": "A52", "type": "karst spring low discharge"}, "geometry": {"type": "Point", "coordinates": [-78.76467178999997, 38.542371650000064]}}, {"type": "Feature", "properties": {"name": "Lancunquan", "s_low_qms": -9999.0, "s_high_qms": -9999.0, "NR": "C31", "type": "water abstraction structure in karst aquifer"}, "geometry": {"type": "Point", "coordinates": [112.55000000000007, 38.59170000000006]}}, {"type": "Feature", "properties": {"name": "Swallow Canyon Spring", "s_low_qms": 0.1, "s_high_qms": 3.0, "NR": "A11", "type": "karst spring low discharge"}, "geometry": {"type": "Point", "coordinates": [-114.35565999999994, 38.842430000000036]}}, {"type": "Feature", "properties": {"name": "Locust Creek Spring", "s_low_qms": 0.03, "s_high_qms": 0.6, "NR": "A48", "type": "karst spring low discharge"}, "geometry": {"type": "Point", "coordinates": [-80.25416699999994, 39.11250000000007]}}, {"type": "Feature", "properties": {"name": "Opequon Spring", "s_low_qms": 0.3, "s_high_qms": 0.4, "NR": "A53", "type": "karst spring low discharge"}, "geometry": {"type": "Point", "coordinates": [-78.01138899999995, 39.29972200000003]}}, {"type": "Feature", "properties": {"name": "Munzur", "s_low_qms": 8.9, "s_high_qms": 30.0, "NR": "C4", "type": "karst spring high discharge"}, "geometry": {"type": "Point", "coordinates": [36.39007891800003, 39.32160570100007]}}, {"type": "Feature", "properties": {"name": "Shentouquan", "s_low_qms": 6.8, "s_high_qms": -9999.0, "NR": "C29", "type": "karst spring high discharge"}, "geometry": {"type": "Point", "coordinates": [112.61120300000005, 39.39058000000006]}}, {"type": "Feature", "properties": {"name": "McGill Spring", "s_low_qms": 0.2, "s_high_qms": 0.4, "NR": "A10", "type": "karst spring low discharge"}, "geometry": {"type": "Point", "coordinates": [-114.77945999999997, 39.412720000000036]}}, {"type": "Feature", "properties": {"name": "Bistrica", "s_low_qms": 12.0, "s_high_qms": 36.0, "NR": "B61", "type": "karst spring high discharge"}, "geometry": {"type": "Point", "coordinates": [20.195202530000074, 39.92644272000007]}}, {"type": "Feature", "properties": {"name": "Chidro", "s_low_qms": 2.5, "s_high_qms": -9999.0, "NR": "B59", "type": "submarine karst spring"}, "geometry": {"type": "Point", "coordinates": [17.684123000000056, 40.307093000000066]}}, {"type": "Feature", "properties": {"name": "Uji Ftohte", "s_low_qms": 1.8, "s_high_qms": 4.0, "NR": "B60", "type": "karst spring low discharge"}, "geometry": {"type": "Point", "coordinates": [19.488279070000033, 40.42097247000004]}}, {"type": "Feature", "properties": {"name": "Aravissos", "s_low_qms": 0.9, "s_high_qms": 3.0, "NR": "B63", "type": "karst spring low discharge"}, "geometry": {"type": "Point", "coordinates": [22.363460000000032, 40.84107000000006]}}, {"type": "Feature", "properties": {"name": "St Naum", "s_low_qms": 2.5, "s_high_qms": 15.0, "NR": "B62", "type": "karst spring high discharge"}, "geometry": {"type": "Point", "coordinates": [20.742861110000035, 40.91458333000003]}}, {"type": "Feature", "properties": {"name": "Fondi Lake", "s_low_qms": 2.0, "s_high_qms": -9999.0, "NR": "B56", "type": "submarine karst spring"}, "geometry": {"type": "Point", "coordinates": [13.281346000000042, 41.29722300000003]}}, {"type": "Feature", "properties": {"name": "Gari Group", "s_low_qms": 18.0, "s_high_qms": -9999.0, "NR": "B57", "type": "karst spring high discharge"}, "geometry": {"type": "Point", "coordinates": [13.832560000000058, 41.48439900000005]}}, {"type": "Feature", "properties": {"name": "Bolje Sestre Spring", "s_low_qms": 2.3, "s_high_qms": 6.0, "NR": "B53", "type": "karst spring high discharge"}, "geometry": {"type": "Point", "coordinates": [19.17954000000003, 42.34898000000004]}}, {"type": "Feature", "properties": {"name": "Peschiera", "s_low_qms": 18.0, "s_high_qms": -9999.0, "NR": "B55", "type": "karst spring high discharge"}, "geometry": {"type": "Point", "coordinates": [13.026220000000023, 42.39381000000003]}}, {"type": "Feature", "properties": {"name": "Nera Springs", "s_low_qms": 15.0, "s_high_qms": -9999.0, "NR": "B54", "type": "karst spring high discharge"}, "geometry": {"type": "Point", "coordinates": [12.49091100000004, 42.499074000000064]}}, {"type": "Feature", "properties": {"name": "Glava Zete Spring", "s_low_qms": 2.0, "s_high_qms": 100.0, "NR": "B51", "type": "karst spring high discharge"}, "geometry": {"type": "Point", "coordinates": [18.99696000000006, 42.67513000000008]}}, {"type": "Feature", "properties": {"name": "Ombla", "s_low_qms": 4.0, "s_high_qms": 138.0, "NR": "B50", "type": "karst spring high discharge"}, "geometry": {"type": "Point", "coordinates": [18.14154872000006, 42.67557397000007]}}, {"type": "Feature", "properties": {"name": "Radavac (Beli Drim)", "s_low_qms": 0.9, "s_high_qms": 21.0, "NR": "B82", "type": "karst spring low discharge"}, "geometry": {"type": "Point", "coordinates": [20.283920000000023, 42.69903000000005]}}, {"type": "Feature", "properties": {"name": "Kumanitsa", "s_low_qms": 0.5, "s_high_qms": 3.0, "NR": "B86", "type": "karst spring low discharge"}, "geometry": {"type": "Point", "coordinates": [24.708350000000053, 42.753750000000025]}}, {"type": "Feature", "properties": {"name": "Iskrets Spring", "s_low_qms": 0.01, "s_high_qms": 55.0, "NR": "B84", "type": "karst spring low discharge"}, "geometry": {"type": "Point", "coordinates": [23.23640000000006, 42.99660000000006]}}, {"type": "Feature", "properties": {"name": "Glava Panega", "s_low_qms": 0.4, "s_high_qms": 36.0, "NR": "B85", "type": "karst spring low discharge"}, "geometry": {"type": "Point", "coordinates": [24.161200000000065, 43.089800000000025]}}, {"type": "Feature", "properties": {"name": "Raška", "s_low_qms": 0.9, "s_high_qms": 7.0, "NR": "B81", "type": "karst spring low discharge"}, "geometry": {"type": "Point", "coordinates": [20.372390000000053, 43.11594000000008]}}, {"type": "Feature", "properties": {"name": "Devnya Spring", "s_low_qms": 2.3, "s_high_qms": 4.0, "NR": "B90", "type": "thermal karst spring"}, "geometry": {"type": "Point", "coordinates": [27.587100000000078, 43.231400000000065]}}, {"type": "Feature", "properties": {"name": "Mchishta", "s_low_qms": 9.5, "s_high_qms": 197.0, "NR": "C13", "type": "karst spring high discharge"}, "geometry": {"type": "Point", "coordinates": [40.49914000000007, 43.23930300000006]}}, {"type": "Feature", "properties": {"name": "Buna", "s_low_qms": 3.0, "s_high_qms": 380.0, "NR": "B48", "type": "karst spring high discharge"}, "geometry": {"type": "Point", "coordinates": [17.908736340000075, 43.25701256000008]}}, {"type": "Feature", "properties": {"name": "Klokun", "s_low_qms": 3.5, "s_high_qms": 19.0, "NR": "B47", "type": "karst spring high discharge"}, "geometry": {"type": "Point", "coordinates": [17.435018980000052, 43.281708250000065]}}, {"type": "Feature", "properties": {"name": "Cascade Springs", "s_low_qms": 0.5, "s_high_qms": -9999.0, "NR": "A14", "type": "karst spring low discharge"}, "geometry": {"type": "Point", "coordinates": [-103.55241999999998, 43.33609000000007]}}, {"type": "Feature", "properties": {"name": "Vrulja Bay", "s_low_qms": -9999.0, "s_high_qms": -9999.0, "NR": "B46", "type": "submarine karst spring"}, "geometry": {"type": "Point", "coordinates": [16.88590000000005, 43.399500000000046]}}, {"type": "Feature", "properties": {"name": "Source de la Vise", "s_low_qms": 0.5, "s_high_qms": -9999.0, "NR": "B19", "type": "submarine karst spring"}, "geometry": {"type": "Point", "coordinates": [3.6478000000000748, 43.44610000000006]}}, {"type": "Feature", "properties": {"name": "Jadro", "s_low_qms": 2.2, "s_high_qms": 29.0, "NR": "B45", "type": "karst spring high discharge"}, "geometry": {"type": "Point", "coordinates": [16.52711417000006, 43.542976870000075]}}, {"type": "Feature", "properties": {"name": "Atzgara", "s_low_qms": 1.5, "s_high_qms": 5.0, "NR": "B93", "type": "karst spring low discharge"}, "geometry": {"type": "Point", "coordinates": [41.02114000000006, 43.65581000000003]}}, {"type": "Feature", "properties": {"name": "Mortola Springs", "s_low_qms": -9999.0, "s_high_qms": -9999.0, "NR": "B26", "type": "submarine karst spring"}, "geometry": {"type": "Point", "coordinates": [7.560100000000034, 43.785600000000045]}}, {"type": "Feature", "properties": {"name": "Vrelo Bosne", "s_low_qms": 1.5, "s_high_qms": 18.0, "NR": "B49", "type": "karst spring low discharge"}, "geometry": {"type": "Point", "coordinates": [18.27402987000005, 43.818280310000034]}}, {"type": "Feature", "properties": {"name": "Fontaine de Vaucluse", "s_low_qms": 4.0, "s_high_qms": 150.0, "NR": "B21", "type": "karst spring high discharge"}, "geometry": {"type": "Point", "coordinates": [5.132503900000074, 43.91821081000006]}}, {"type": "Feature", "properties": {"name": "Cişmea 1", "s_low_qms": 1.6, "s_high_qms": -9999.0, "NR": "B91", "type": "water abstraction structure in karst aquifer"}, "geometry": {"type": "Point", "coordinates": [28.61122000000006, 44.19139000000007]}}, {"type": "Feature", "properties": {"name": "Vrelo Mlave", "s_low_qms": 0.2, "s_high_qms": 17.0, "NR": "B79", "type": "karst spring low discharge"}, "geometry": {"type": "Point", "coordinates": [21.78403000000003, 44.191610000000026]}}, {"type": "Feature", "properties": {"name": "Pliva", "s_low_qms": 8.0, "s_high_qms": -9999.0, "NR": "B44", "type": "karst spring high discharge"}, "geometry": {"type": "Point", "coordinates": [17.019932090000054, 44.23982736000005]}}, {"type": "Feature", "properties": {"name": "Crno vrelo", "s_low_qms": 4.5, "s_high_qms": -9999.0, "NR": "B43", "type": "karst spring high discharge"}, "geometry": {"type": "Point", "coordinates": [16.165373670000065, 44.496900690000075]}}, {"type": "Feature", "properties": {"name": "Spring Creek Springs", "s_low_qms": 1.5, "s_high_qms": -9999.0, "NR": "A17", "type": "karst spring low discharge"}, "geometry": {"type": "Point", "coordinates": [-81.15999999999997, 44.64000000000004]}}, {"type": "Feature", "properties": {"name": "Ouysse", "s_low_qms": 0.6, "s_high_qms": 200.0, "NR": "B18", "type": "karst spring low discharge"}, "geometry": {"type": "Point", "coordinates": [1.5842032000000472, 44.790271000000075]}}, {"type": "Feature", "properties": {"name": "Izverna", "s_low_qms": 1.0, "s_high_qms": 3.0, "NR": "B77", "type": "karst spring low discharge"}, "geometry": {"type": "Point", "coordinates": [22.611600000000067, 44.97252000000003]}}, {"type": "Feature", "properties": {"name": "Karasu-Bashi", "s_low_qms": 0.1, "s_high_qms": 39.0, "NR": "B92", "type": "karst spring low discharge"}, "geometry": {"type": "Point", "coordinates": [34.609444444000076, 44.980000000000075]}}, {"type": "Feature", "properties": {"name": "Riječina", "s_low_qms": 0.0, "s_high_qms": 150.0, "NR": "B40", "type": "karst spring low discharge"}, "geometry": {"type": "Point", "coordinates": [14.427134540000054, 45.425681730000065]}}, {"type": "Feature", "properties": {"name": "Touvre", "s_low_qms": 6.0, "s_high_qms": 40.0, "NR": "B16", "type": "karst spring high discharge"}, "geometry": {"type": "Point", "coordinates": [0.2545109700000694, 45.66297100000003]}}, {"type": "Feature", "properties": {"name": "Timavo", "s_low_qms": 30.2, "s_high_qms": -9999.0, "NR": "B36", "type": "karst spring high discharge"}, "geometry": {"type": "Point", "coordinates": [13.591111111000032, 45.78750000000008]}}, {"type": "Feature", "properties": {"name": "Ottawa River Caves", "s_low_qms": 10.0, "s_high_qms": -9999.0, "NR": "A18", "type": "karst spring high discharge"}, "geometry": {"type": "Point", "coordinates": [-76.91999999999996, 45.88000000000005]}}, {"type": "Feature", "properties": {"name": "Ljubljanica", "s_low_qms": 1.5, "s_high_qms": 120.0, "NR": "B38", "type": "karst spring low discharge"}, "geometry": {"type": "Point", "coordinates": [14.30038477000005, 45.95026536000006]}}, {"type": "Feature", "properties": {"name": "Livenza Group", "s_low_qms": 11.4, "s_high_qms": -9999.0, "NR": "B34", "type": "karst spring high discharge"}, "geometry": {"type": "Point", "coordinates": [12.496666667000056, 46.03972222200008]}}, {"type": "Feature", "properties": {"name": "Kamniška Bistrica", "s_low_qms": 2.1, "s_high_qms": 63.0, "NR": "B37", "type": "karst spring high discharge"}, "geometry": {"type": "Point", "coordinates": [14.594674190000035, 46.327849650000076]}}, {"type": "Feature", "properties": {"name": "Source de l'Orbe", "s_low_qms": 2.0, "s_high_qms": 80.0, "NR": "B24", "type": "karst spring high discharge"}, "geometry": {"type": "Point", "coordinates": [6.345406000000025, 46.69814400000007]}}, {"type": "Feature", "properties": {"name": "Hévíz Lake Spring", "s_low_qms": 0.3, "s_high_qms": 0.6, "NR": "B65", "type": "thermal karst spring"}, "geometry": {"type": "Point", "coordinates": [17.193873920000044, 46.787171080000064]}}, {"type": "Feature", "properties": {"name": "Source de l'Areuse", "s_low_qms": 0.7, "s_high_qms": 39.0, "NR": "B23", "type": "karst spring low discharge"}, "geometry": {"type": "Point", "coordinates": [6.548895000000073, 46.91122500000006]}}, {"type": "Feature", "properties": {"name": "Izbândiş", "s_low_qms": 0.05, "s_high_qms": 4.0, "NR": "B75", "type": "karst spring low discharge"}, "geometry": {"type": "Point", "coordinates": [22.52389000000005, 46.93580000000003]}}, {"type": "Feature", "properties": {"name": "Tapolcafő Spring", "s_low_qms": 0.3, "s_high_qms": 1.3, "NR": "B66", "type": "karst spring low discharge"}, "geometry": {"type": "Point", "coordinates": [17.521994750000033, 47.28123404000007]}}, {"type": "Feature", "properties": {"name": "Kläfferquelle", "s_low_qms": 0.4, "s_high_qms": 34.0, "NR": "B33", "type": "water abstraction structure in karst aquifer"}, "geometry": {"type": "Point", "coordinates": [15.14311900000007, 47.648097000000064]}}, {"type": "Feature", "properties": {"name": "Pießlingursprung", "s_low_qms": 2.2, "s_high_qms": 40.0, "NR": "B32", "type": "karst spring high discharge"}, "geometry": {"type": "Point", "coordinates": [14.276028000000053, 47.69272200000006]}}, {"type": "Feature", "properties": {"name": "Aachquelle", "s_low_qms": 1.1, "s_high_qms": 28.0, "NR": "B27", "type": "karst spring low discharge"}, "geometry": {"type": "Point", "coordinates": [8.858056000000033, 47.84666700000008]}}, {"type": "Feature", "properties": {"name": "New well Miskolctapolca", "s_low_qms": 0.3, "s_high_qms": 2.0, "NR": "B74", "type": "karst spring low discharge"}, "geometry": {"type": "Point", "coordinates": [20.746294230000046, 48.06129017000006]}}, {"type": "Feature", "properties": {"name": "Jósvafő Spring", "s_low_qms": 0.1, "s_high_qms": 7.0, "NR": "B73", "type": "karst spring low discharge"}, "geometry": {"type": "Point", "coordinates": [20.543383220000067, 48.48384535000008]}}, {"type": "Feature", "properties": {"name": "Buchbrunnenquelle", "s_low_qms": 0.6, "s_high_qms": 1.5, "NR": "B29", "type": "water abstraction structure in karst aquifer"}, "geometry": {"type": "Point", "coordinates": [10.364088000000038, 48.680375000000026]}}, {"type": "Feature", "properties": {"name": "Lazce", "s_low_qms": 0.3, "s_high_qms": 1.4, "NR": "B68", "type": "karst spring low discharge"}, "geometry": {"type": "Point", "coordinates": [19.003240000000062, 48.97403000000003]}}, {"type": "Feature", "properties": {"name": "Zakopane-Banska PGP-1", "s_low_qms": 0.2, "s_high_qms": -9999.0, "NR": "B71", "type": "water abstraction structure in karst aquifer"}, "geometry": {"type": "Point", "coordinates": [20.018553500000053, 49.398930920000055]}}, {"type": "Feature", "properties": {"name": "Fairmont Hot Springs", "s_low_qms": 0.04, "s_high_qms": -9999.0, "NR": "A8", "type": "thermal karst spring"}, "geometry": {"type": "Point", "coordinates": [-115.83999999999997, 50.32000000000005]}}, {"type": "Feature", "properties": {"name": "Blekitne Zródla", "s_low_qms": 0.4, "s_high_qms": 0.6, "NR": "B69", "type": "karst spring low discharge"}, "geometry": {"type": "Point", "coordinates": [19.480576160000055, 50.76450698000008]}}, {"type": "Feature", "properties": {"name": "Banff Hot Springs", "s_low_qms": 0.1, "s_high_qms": -9999.0, "NR": "A7", "type": "thermal karst spring"}, "geometry": {"type": "Point", "coordinates": [-115.55999999999995, 51.150000000000034]}}, {"type": "Feature", "properties": {"name": "Cheddar Springs", "s_low_qms": 1.0, "s_high_qms": -9999.0, "NR": "B5", "type": "karst spring low discharge"}, "geometry": {"type": "Point", "coordinates": [-2.7661694439999565, 51.22934722200006]}}, {"type": "Feature", "properties": {"name": "Bath Springs", "s_low_qms": 0.02, "s_high_qms": -9999.0, "NR": "B6", "type": "thermal karst spring"}, "geometry": {"type": "Point", "coordinates": [-2.359530556999971, 51.380977778000045]}}, {"type": "Feature", "properties": {"name": "Rhumequelle", "s_low_qms": 2.0, "s_high_qms": 6.0, "NR": "B9", "type": "karst spring high discharge"}, "geometry": {"type": "Point", "coordinates": [10.310194000000024, 51.58975000000004]}}, {"type": "Feature", "properties": {"name": "Paderquellen", "s_low_qms": 3.0, "s_high_qms": 9.0, "NR": "B8", "type": "karst spring high discharge"}, "geometry": {"type": "Point", "coordinates": [8.750128000000075, 51.71906400000006]}}, {"type": "Feature", "properties": {"name": "Big Spring", "s_low_qms": 5.0, "s_high_qms": 7.0, "NR": "A6", "type": "karst spring high discharge"}, "geometry": {"type": "Point", "coordinates": [-117.21999999999997, 52.06000000000006]}}, {"type": "Feature", "properties": {"name": "Maligne", "s_low_qms": 15.2, "s_high_qms": 40.0, "NR": "A4", "type": "karst spring high discharge"}, "geometry": {"type": "Point", "coordinates": [-118.00999999999999, 52.92000000000007]}}, {"type": "Feature", "properties": {"name": "Bolshaja Iret", "s_low_qms": 12.0, "s_high_qms": -9999.0, "NR": "C27", "type": "karst spring high discharge"}, "geometry": {"type": "Point", "coordinates": [102.26023900000007, 52.95259100000004]}}, {"type": "Feature", "properties": {"name": "Cong Springs", "s_low_qms": 5.0, "s_high_qms": -9999.0, "NR": "B1", "type": "karst spring high discharge"}, "geometry": {"type": "Point", "coordinates": [-9.289241666999942, 53.54029444400004]}}, {"type": "Feature", "properties": {"name": "Taliza", "s_low_qms": 1.5, "s_high_qms": -9999.0, "NR": "C28", "type": "karst spring low discharge"}, "geometry": {"type": "Point", "coordinates": [108.23490900000007, 56.85529000000008]}}, {"type": "Feature", "properties": {"name": "Goluboe Ozero", "s_low_qms": 0.5, "s_high_qms": 2.0, "NR": "B95", "type": "karst spring low discharge"}, "geometry": {"type": "Point", "coordinates": [58.26897222200006, 57.991241667000054]}}, {"type": "Feature", "properties": {"name": "Bobrovaya", "s_low_qms": 1.5, "s_high_qms": 3.0, "NR": "C25", "type": "karst spring low discharge"}, "geometry": {"type": "Point", "coordinates": [61.38370833300007, 58.94301944400007]}}, {"type": "Feature", "properties": {"name": "White Spray Spring", "s_low_qms": 2.5, "s_high_qms": -9999.0, "NR": "A1", "type": "karst spring high discharge"}, "geometry": {"type": "Point", "coordinates": [-124.11999999999995, 61.230000000000075]}}, {"type": "Feature", "properties": {"name": "Muriel Spring", "s_low_qms": 0.05, "s_high_qms": 0.97, "NR": "B12", "type": "karst spring low discharge"}, "geometry": {"type": "Point", "coordinates": [-2.8639559999999733, 41.73459200000008]}}, {"type": "Feature", "properties": {"name": "Ses Fonts Ufanes Spring", "s_low_qms": 0.0, "s_high_qms": 70.0, "NR": "B13", "type": "karst spring low discharge"}, "geometry": {"type": "Point", "coordinates": [2.962278000000026, 39.80388900000003]}}, {"type": "Feature", "properties": {"name": "Pozo Azul Spring", "s_low_qms": 0.03, "s_high_qms": 4.7, "NR": "B11", "type": "karst spring low discharge"}, "geometry": {"type": "Point", "coordinates": [-3.7961439999999698, 42.735761000000025]}}, {"type": "Feature", "properties": {"name": "Blue Waterholes", "s_low_qms": 0.17, "s_high_qms": 2.19, "NR": "E5", "type": "karst spring low discharge"}, "geometry": {"type": "Point", "coordinates": [148.68383600000004, -35.623591999999974]}}]}