{
  "type": "FeatureCollection",
  "name": "DRC mobility and border context demonstration",
  "features": [
    {"type":"Feature","properties":{"name":"Bunia health facility","layer":"health","measurement_type":"demonstration only"},"geometry":{"type":"Point","coordinates":[30.22,1.56]}},
    {"type":"Feature","properties":{"name":"Goma health facility","layer":"health","measurement_type":"demonstration only"},"geometry":{"type":"Point","coordinates":[29.23,-1.68]}},
    {"type":"Feature","properties":{"name":"Aru refugee / IDP site","layer":"shelter","measurement_type":"demonstration only"},"geometry":{"type":"Point","coordinates":[30.82,2.62]}},
    {"type":"Feature","properties":{"name":"Goma airport","layer":"transport","measurement_type":"demonstration only"},"geometry":{"type":"Point","coordinates":[29.24,-1.67]}},
    {"type":"Feature","properties":{"name":"Kasindi border crossing","layer":"transport","measurement_type":"demonstration only"},"geometry":{"type":"Point","coordinates":[29.71,0.31]}},
    {"type":"Feature","properties":{"name":"DRC → Uganda (demo)","layer":"flow","count":12000,"measurement_type":"demonstration only"},"geometry":{"type":"LineString","coordinates":[[29.23,-1.68],[30.62,0.32]]}},
    {"type":"Feature","properties":{"name":"DRC → Rwanda (demo)","layer":"flow","count":8500,"measurement_type":"demonstration only"},"geometry":{"type":"LineString","coordinates":[[29.23,-1.68],[29.63,-2.60]]}},
    {"type":"Feature","properties":{"name":"DRC → Burundi (demo)","layer":"flow","count":6200,"measurement_type":"demonstration only"},"geometry":{"type":"LineString","coordinates":[[28.86,-2.50],[29.36,-3.38]]}},
    {"type":"Feature","properties":{"name":"DRC → Tanzania (demo)","layer":"flow","count":4100,"measurement_type":"demonstration only"},"geometry":{"type":"LineString","coordinates":[[29.02,-6.00],[30.00,-6.82]]}},
    {"type":"Feature","properties":{"name":"DRC → Zambia (demo)","layer":"flow","count":2800,"measurement_type":"demonstration only"},"geometry":{"type":"LineString","coordinates":[[28.00,-11.66],[28.28,-15.42]]}}
  ]
}
