{"type": "FeatureCollection", "name": "OpenStreetMap POI — Goma sample", "features": [{"type": "Feature", "properties": {"osm_id": 2857724459, "osm_type": "node", "name": "Satguru", "office": "company"}, "geometry": {"type": "Point", "coordinates": [29.2345836, -1.6841429]}}, {"type": "Feature", "properties": {"osm_id": 2857730157, "osm_type": "node", "name": "Jeffery Travel", "office": "company"}, "geometry": {"type": "Point", "coordinates": [29.234471, -1.6841214]}}, {"type": "Feature", "properties": {"osm_id": 2857740463, "osm_type": "node", "amenity": "restaurant", "name": "Petit Paris"}, "geometry": {"type": "Point", "coordinates": [29.2336357, -1.688765]}}, {"type": "Feature", "properties": {"osm_id": 3344009024, "osm_type": "node", "name": "Lava Stone", "tourism": "hotel"}, "geometry": {"type": "Point", "coordinates": [29.2342268, -1.6841019]}}, {"type": "Feature", "properties": {"osm_id": 4266677308, "osm_type": "node", "addr:street": "Avenue du Mont Goma", "amenity": "bar", "name": "Les Vétérans"}, "geometry": {"type": "Point", "coordinates": [29.2337991, -1.6837629]}}, {"type": "Feature", "properties": {"osm_id": 4704037493, "osm_type": "node", "addr:housenumber": "14", "addr:postcode": "00243", "addr:street": "Avenue Tulupier", "name": "Bureau de Fond Social RDC", "office": "ngo"}, "geometry": {"type": "Point", "coordinates": [29.2303901, -1.689924]}}, {"type": "Feature", "properties": {"osm_id": 5811591955, "osm_type": "node", "name": "Horizon", "shop": "hardware"}, "geometry": {"type": "Point", "coordinates": [29.2341149, -1.6850882]}}, {"type": "Feature", "properties": {"osm_id": 5811591956, "osm_type": "node", "amenity": "courthouse", "name": "Clinique Juridique de Goma"}, "geometry": {"type": "Point", "coordinates": [29.232519, -1.6869394]}}, {"type": "Feature", "properties": {"osm_id": 5811591957, "osm_type": "node", "name": "CAFOD", "office": "ngo"}, "geometry": {"type": "Point", "coordinates": [29.2332023, -1.6861526]}}, {"type": "Feature", "properties": {"osm_id": 5811621874, "osm_type": "node", "amenity": "pharmacy", "name": "Pharmacie Diocésain"}, "geometry": {"type": "Point", "coordinates": [29.2338158, -1.6856552]}}, {"type": "Feature", "properties": {"osm_id": 5811621875, "osm_type": "node", "amenity": "pharmacy", "name": "Pharmacie Arche de l'unité"}, "geometry": {"type": "Point", "coordinates": [29.2341176, -1.6853965]}}, {"type": "Feature", "properties": {"osm_id": 5811621877, "osm_type": "node", "name": "Bureau d'expert géologique miniere", "office": "research"}, "geometry": {"type": "Point", "coordinates": [29.2339928, -1.6854997]}}, {"type": "Feature", "properties": {"osm_id": 5891195512, "osm_type": "node", "name": "ICRC", "office": "ngo"}, "geometry": {"type": "Point", "coordinates": [29.2305455, -1.6887468]}}, {"type": "Feature", "properties": {"osm_id": 5898853482, "osm_type": "node", "name": "Conseil norvégien pour les réfugiés", "office": "ngo"}, "geometry": {"type": "Point", "coordinates": [29.2284877, -1.68689]}}, {"type": "Feature", "properties": {"osm_id": 5901707932, "osm_type": "node", "amenity": "restaurant", "name": "Maghali Fan Club"}, "geometry": {"type": "Point", "coordinates": [29.2313171, -1.6881496]}}, {"type": "Feature", "properties": {"osm_id": 5901722867, "osm_type": "node", "amenity": "courthouse", "name": "Parquet de Grande Instance de Goma"}, "geometry": {"type": "Point", "coordinates": [29.2308669, -1.6882897]}}, {"type": "Feature", "properties": {"osm_id": 6417646323, "osm_type": "node", "name": "Charcuterie", "shop": "butcher"}, "geometry": {"type": "Point", "coordinates": [29.2340559, -1.68406]}}, {"type": "Feature", "properties": {"osm_id": 6417646325, "osm_type": "node", "amenity": "restaurant", "internet_access": "yes", "internet_access:fee": "no", "name": "Nyumbani Lounge", "smoking": "yes"}, "geometry": {"type": "Point", "coordinates": [29.2307782, -1.6831082]}}, {"type": "Feature", "properties": {"osm_id": 7077045488, "osm_type": "node", "amenity": "bar", "cuisine": "barbecue;coffee_shop;deli;african", "internet_access": "wlan", "name": "Carrefour des Arts"}, "geometry": {"type": "Point", "coordinates": [29.2294512, -1.6829143]}}, {"type": "Feature", "properties": {"osm_id": 7090887985, "osm_type": "node", "name": "SOCODEE", "office": "company"}, "geometry": {"type": "Point", "coordinates": [29.2291112, -1.6833753]}}, {"type": "Feature", "properties": {"osm_id": 7473845702, "osm_type": "node", "addr:housenumber": "12", "addr:street": "Rue Lyn Lusi", "description": "Restaurant et Logement", "name": "Centre d'accueil Bakanja", "phone": "+243 970 469 994", "tourism": "hotel", "website": "http://www.bakanja.com"}, "geometry": {"type": "Point", "coordinates": [29.2324355, -1.6881015]}}, {"type": "Feature", "properties": {"osm_id": 7533747981, "osm_type": "node", "amenity": "school", "name": "Lycée Amani", "website": "https://lyceeamani.org/"}, "geometry": {"type": "Point", "coordinates": [29.2316446, -1.6812129]}}, {"type": "Feature", "properties": {"osm_id": 7865655867, "osm_type": "node", "government": "public_service", "name": "Office National de Café (O N C)", "office": "government", "shop": "coffee"}, "geometry": {"type": "Point", "coordinates": [29.2345174, -1.6828107]}}, {"type": "Feature", "properties": {"osm_id": 8293592402, "osm_type": "node", "name": "Radio Maria", "shop": "radiotechnics"}, "geometry": {"type": "Point", "coordinates": [29.2321311, -1.6840006]}}, {"type": "Feature", "properties": {"osm_id": 8543217172, "osm_type": "node", "amenity": "school", "name": "École Privée des Volcans"}, "geometry": {"type": "Point", "coordinates": [29.2288497, -1.6816189]}}, {"type": "Feature", "properties": {"osm_id": 9340335117, "osm_type": "node", "name:en": "New alaska", "opening_hours": "Mo-Su 08:30-21:30", "shop": "bakery"}, "geometry": {"type": "Point", "coordinates": [29.2292322, -1.6829885]}}, {"type": "Feature", "properties": {"osm_id": 9340395717, "osm_type": "node", "amenity": "restaurant", "name": "Carnacia", "opening_hours": "Mo-Su 09:00-21:45"}, "geometry": {"type": "Point", "coordinates": [29.2338028, -1.6879171]}}, {"type": "Feature", "properties": {"osm_id": 9886023422, "osm_type": "node", "amenity": "post_office", "name": "Maji Nyumbani Office"}, "geometry": {"type": "Point", "coordinates": [29.2334855, -1.6814483]}}, {"type": "Feature", "properties": {"osm_id": 9902217966, "osm_type": "node", "amenity": "bus_station", "name": "Gare routière de goma"}, "geometry": {"type": "Point", "coordinates": [29.2348348, -1.6811939]}}, {"type": "Feature", "properties": {"osm_id": 9977107421, "osm_type": "node", "addr:street": "Rue Lyn Lusi", "internet_access": "wlan", "name": "Bungwe Guest house", "tourism": "hotel"}, "geometry": {"type": "Point", "coordinates": [29.2302877, -1.6870193]}}, {"type": "Feature", "properties": {"osm_id": 11019644434, "osm_type": "node", "amenity": "arts_centre", "name": "Institut français"}, "geometry": {"type": "Point", "coordinates": [29.2281961, -1.6839684]}}, {"type": "Feature", "properties": {"osm_id": 11019644435, "osm_type": "node", "name": "Pain royal", "shop": "bakery"}, "geometry": {"type": "Point", "coordinates": [29.2292636, -1.6848017]}}, {"type": "Feature", "properties": {"osm_id": 11019644437, "osm_type": "node", "name": "Garage étape système", "shop": "car_repair"}, "geometry": {"type": "Point", "coordinates": [29.2282798, -1.685943]}}, {"type": "Feature", "properties": {"osm_id": 11019644438, "osm_type": "node", "name": "Commandement de la 34e région militaire du NK", "office": "government"}, "geometry": {"type": "Point", "coordinates": [29.228265, -1.6850226]}}, {"type": "Feature", "properties": {"osm_id": 11019644439, "osm_type": "node", "name": "8e région militaire", "office": "government"}, "geometry": {"type": "Point", "coordinates": [29.2281706, -1.6842555]}}, {"type": "Feature", "properties": {"osm_id": 11019669977, "osm_type": "node", "amenity": "bank"}, "geometry": {"type": "Point", "coordinates": [29.2289268, -1.6866929]}}, {"type": "Feature", "properties": {"osm_id": 11019669978, "osm_type": "node", "amenity": "restaurant", "cuisine": "pizza", "name": "Mediterraneo"}, "geometry": {"type": "Point", "coordinates": [29.2296894, -1.6877791]}}, {"type": "Feature", "properties": {"osm_id": 11019669979, "osm_type": "node", "name": "Fonds de promotion de l'industrie", "office": "government"}, "geometry": {"type": "Point", "coordinates": [29.2300466, -1.6877518]}}, {"type": "Feature", "properties": {"osm_id": 11019669982, "osm_type": "node", "name": "Commissaire de District", "office": "government"}, "geometry": {"type": "Point", "coordinates": [29.2329987, -1.6886045]}}, {"type": "Feature", "properties": {"osm_id": 11019669983, "osm_type": "node", "tourism": "motel"}, "geometry": {"type": "Point", "coordinates": [29.2335558, -1.6886775]}}, {"type": "Feature", "properties": {"osm_id": 11019800399, "osm_type": "node", "name": "Gouvernorat", "office": "government"}, "geometry": {"type": "Point", "coordinates": [29.2282141, -1.6892253]}}, {"type": "Feature", "properties": {"osm_id": 11019800400, "osm_type": "node", "amenity": "cafe", "cuisine": "coffee_shop", "name": "Selfie"}, "geometry": {"type": "Point", "coordinates": [29.2292715, -1.6885471]}}, {"type": "Feature", "properties": {"osm_id": 11329254593, "osm_type": "node", "name": "Division Provinciale de la Finance", "office": "government"}, "geometry": {"type": "Point", "coordinates": [29.23247, -1.6806765]}}, {"type": "Feature", "properties": {"osm_id": 12318270862, "osm_type": "node", "date": "2024_11_05", "name": "Bureau OVG", "office": "research", "operator": "Observatoire Volcanologique de Goma", "source": "IGC_Goma", "wheelchair": "yes"}, "geometry": {"type": "Point", "coordinates": [29.2263999, -1.6812364]}}, {"type": "Feature", "properties": {"osm_id": 12442115058, "osm_type": "node", "amenity": "restaurant", "name": "Restaurant Espace BEDAN"}, "geometry": {"type": "Point", "coordinates": [29.2327463, -1.6882827]}}, {"type": "Feature", "properties": {"osm_id": 12442115059, "osm_type": "node", "name": "War child", "office": "ngo", "wheelchair": "yes"}, "geometry": {"type": "Point", "coordinates": [29.2341098, -1.6891614]}}, {"type": "Feature", "properties": {"osm_id": 12442115060, "osm_type": "node", "name": "Concern Worldwide", "office": "ngo"}, "geometry": {"type": "Point", "coordinates": [29.2330968, -1.6885959]}}, {"type": "Feature", "properties": {"osm_id": 12442115061, "osm_type": "node", "government": "administrative", "name": "Bureau De Coordination De La CSPP GOMA", "office": "government", "opening_hours": "Mo-Fr 08:30-20:00; Sa,Su 08:00-15:00; PH off", "wheelchair": "yes"}, "geometry": {"type": "Point", "coordinates": [29.2338545, -1.6894973]}}, {"type": "Feature", "properties": {"osm_id": 13247661701, "osm_type": "node", "amenity": "restaurant", "name": "Sous l'Avocatier"}, "geometry": {"type": "Point", "coordinates": [29.2303292, -1.6885165]}}, {"type": "Feature", "properties": {"osm_id": 13798886142, "osm_type": "node", "amenity": "place_of_worship", "name": "église Chrisco", "religion": "christian"}, "geometry": {"type": "Point", "coordinates": [29.2280188, -1.6860874]}}, {"type": "Feature", "properties": {"osm_id": 13846852600, "osm_type": "node", "amenity": "clinic", "healthcare": "clinic", "name": "Jubilé"}, "geometry": {"type": "Point", "coordinates": [29.2341427, -1.6885423]}}, {"type": "Feature", "properties": {"osm_id": 13846862403, "osm_type": "node", "amenity": "clinic", "healthcare": "clinic", "name": "Centre hospitalier Shifaa"}, "geometry": {"type": "Point", "coordinates": [29.2305516, -1.6879435]}}, {"type": "Feature", "properties": {"osm_id": 13846862441, "osm_type": "node", "amenity": "clinic", "is_in:health_area": "Heal Africa", "is_in:health_zone": "Goma", "name": "Centre de santé Heal Africa", "source": "MSFsurvey", "source:date": "2018"}, "geometry": {"type": "Point", "coordinates": [29.2327899, -1.6801148]}}, {"type": "Feature", "properties": {"osm_id": 193155352, "osm_type": "way", "amenity": "school", "building": "yes", "name": "Elementary School", "source": "Bing", "source:name": "Army Topo Map"}, "geometry": {"type": "Point", "coordinates": [29.2289121, -1.6803101]}}, {"type": "Feature", "properties": {"osm_id": 257044951, "osm_type": "way", "addr:city": "Goma", "addr:street": "Avenue des Ibis", "amenity": "place_of_worship", "building": "yes", "denomination": "protestant", "name": "Église Évangelique de la Restauration ERC", "religion": "christian"}, "geometry": {"type": "Point", "coordinates": [29.2318776, -1.6854589]}}, {"type": "Feature", "properties": {"osm_id": 257118802, "osm_type": "way", "amenity": "arts_centre", "building": "yes", "name": "Institut Français", "website": "https://institutfrancaisgoma.org/"}, "geometry": {"type": "Point", "coordinates": [29.2282237, -1.6838742]}}, {"type": "Feature", "properties": {"osm_id": 257537456, "osm_type": "way", "amenity": "courthouse", "building": "yes", "name": "Tribunal de Grande Instance"}, "geometry": {"type": "Point", "coordinates": [29.2320859, -1.6875265]}}, {"type": "Feature", "properties": {"osm_id": 652531928, "osm_type": "way", "amenity": "parking"}, "geometry": {"type": "Point", "coordinates": [29.2336681, -1.6807064]}}, {"type": "Feature", "properties": {"osm_id": 653736391, "osm_type": "way", "amenity": "school", "name": "Lycée Amani", "website": "https://lyceeamani.org/"}, "geometry": {"type": "Point", "coordinates": [29.2316218, -1.6804566]}}, {"type": "Feature", "properties": {"osm_id": 1509524397, "osm_type": "way", "addr:city": "Goma", "addr:street": "Avenue des Ibis", "amenity": "place_of_worship", "building": "yes", "denomination": "protestant", "name": "Église Évangelique de la Restauration ERC", "religion": "christian"}, "geometry": {"type": "Point", "coordinates": [29.2318776, -1.6854589]}}]}